{
"type": "FeatureCollection",
"name": "KeinTempo30ohne",
"crs": { "type": "name", "properties": { "name": "urn:ogc:def:crs:OGC:1.3:CRS84" } },
"features": [
{ "type": "Feature", "properties": { "A": "1", "Name": "Ev. KiTa Arche Noah", "Straße": "Manshardtstraße", "Nr.": "105f", "PLZ": "22119", "Nummer": "105f" }, "geometry": { "type": "Point", "coordinates": [ 10.1045831, 53.5591532 ] } },
{ "type": "Feature", "properties": { "A": "3", "Name": "Seniorenhaus Matthäus", "Straße": "Maria-Louisen-Straße", "Nr.": "30", "PLZ": "22301", "Nummer": "30" }, "geometry": { "type": "Point", "coordinates": [ 10.0041116, 53.5882771 ] } },
{ "type": "Feature", "properties": { "A": "1", "Name": "KiGa Außenmühle", "Straße": "Marmstorfer Weg", "Nr.": "33", "PLZ": "21077", "Nummer": "33" }, "geometry": { "type": "Point", "coordinates": [ 9.97316789834837, 53.44782965 ] } },
{ "type": "Feature", "properties": { "A": "1", "Name": "KiTa Petra Schiffler", "Straße": "Am Pulverhof", "Nr.": "46", "PLZ": "22147", "Nummer": "46" }, "geometry": { "type": "Point", "coordinates": [ 10.1326237, 53.5968004 ] } },
{ "type": "Feature", "properties": { "A": "1", "Name": "KiTa Kindergarten Flitzepiepen", "Straße": "Martinistraße", "Nr.": "3", "PLZ": "20251", "Nummer": "3" }, "geometry": { "type": "Point", "coordinates": [ 9.987565676875491, 53.59227835 ] } },
{ "type": "Feature", "properties": { "A": "1", "Name": "KiTa Die Martinis e.V.", "Straße": "Martinistraße", "Nr.": "20", "PLZ": "20251", "Nummer": "20" }, "geometry": { "type": "Point", "coordinates": [ 9.986029236373639, 53.592772368131172 ] } },
{ "type": "Feature", "properties": { "A": "1", "Name": "KiTa Universitätsklinikum Hamburg - Eppendorf", "Straße": "Martinistraße", "Nr.": "52", "PLZ": "20251", "Nummer": "52" }, "geometry": { "type": "Point", "coordinates": [ 9.9756013, 53.5921787 ] } },
{ "type": "Feature", "properties": { "A": "1", "Name": "KiTa und Club Martinistraße", "Straße": "Martinistraße", "Nr.": "61", "PLZ": "20251", "Nummer": "61" }, "geometry": { "type": "Point", "coordinates": [ 9.97526034301281, 53.58833135 ] } },
{ "type": "Feature", "properties": { "A": "4", "Name": "Universitäres Herzzentrum Hamburg GmbH", "Straße": "Martinistraße", "Nr.": "52", "PLZ": "20251", "Nummer": "52" }, "geometry": { "type": "Point", "coordinates": [ 9.9756013, 53.5921787 ] } },
{ "type": "Feature", "properties": { "A": "4", "Name": "Universitätsklinikum Hamburg-Eppendorf", "Straße": "Martinistraße", "Nr.": "52", "PLZ": "20251", "Nummer": "52" }, "geometry": { "type": "Point", "coordinates": [ 9.9756013, 53.5921787 ] } },
{ "type": "Feature", "properties": { "A": "4", "Name": "Facharztklinik Hamburg", "Straße": "Martinistraße", "Nr.": "78", "PLZ": "20251", "Nummer": "78" }, "geometry": { "type": "Point", "coordinates": [ 9.972926, 53.5884479 ] } },
{ "type": "Feature", "properties": { "A": "3", "Name": "Agaplesion Bethanien-Höfe", "Straße": "Martinistraße", "Nr.": "45", "PLZ": "20251", "Nummer": "45" }, "geometry": { "type": "Point", "coordinates": [ 9.9826284, 53.5916246 ] } },
{ "type": "Feature", "properties": { "A": "1", "Name": "KiTa Kinderzimmer City-Süd", "Straße": "Amsinckstraße", "Nr.": "61", "PLZ": "20097", "Nummer": "61" }, "geometry": { "type": "Point", "coordinates": [ 10.0208129, 53.5444127 ] } },
{ "type": "Feature", "properties": { "A": "2", "Name": "Gymnasium Allee", "Straße": "Max-Brauer-Allee", "Nr.": "83", "PLZ": "22765", "Nummer": "83" }, "geometry": { "type": "Point", "coordinates": [ 9.940932, 53.5548664 ] } },
{ "type": "Feature", "properties": { "A": "1", "Name": "KiTa Krokophantsie", "Straße": "Max-Brauer-Allee", "Nr.": "186", "PLZ": "22765", "Nummer": "186" }, "geometry": { "type": "Point", "coordinates": [ 9.952041382507179, 53.5595251 ] } },
{ "type": "Feature", "properties": { "A": "1", "Name": "KiTa WiWaWuschel", "Straße": "Max-Brauer-Allee", "Nr.": "191", "PLZ": "22765", "Nummer": "191" }, "geometry": { "type": "Point", "coordinates": [ 9.95272011599636, 53.56049095 ] } },
{ "type": "Feature", "properties": { "A": "1", "Name": "Hort Akademie für Kinder", "Straße": "Meenkwiese", "Nr.": "39b", "PLZ": "20249", "Nummer": "39b" }, "geometry": { "type": "Point", "coordinates": [ 9.993148570199528, 53.599510713307644 ] } },
{ "type": "Feature", "properties": { "A": "1", "Name": "Freier Waldorfkindergarten Meiendorf", "Straße": "Meiendorfer Weg", "Nr.": "77", "PLZ": "22145", "Nummer": "77" }, "geometry": { "type": "Point", "coordinates": [ 10.1625461622433, 53.63566545 ] } },
{ "type": "Feature", "properties": { "A": "3", "Name": "Stiftung Altenheim St. Johannis\/St. Nikolai", "Straße": "Mittelweg", "Nr.": "106", "PLZ": "20149", "Nummer": "106" }, "geometry": { "type": "Point", "coordinates": [ 9.993674681996589, 53.5757388 ] } },
{ "type": "Feature", "properties": { "A": "1", "Name": "KiTa Möllner Landstraße", "Straße": "Möllner Landstraße", "Nr.": "266", "PLZ": "22117", "Nummer": "266" }, "geometry": { "type": "Point", "coordinates": [ 10.1447204, 53.5433985 ] } },
{ "type": "Feature", "properties": { "A": "4", "Name": "Krankenhaus Jerusalem", "Straße": "Moorkamp", "Nr.": "2-6", "PLZ": "20357", "Nummer": "2-6" }, "geometry": { "type": "Point", "coordinates": [ 9.967673, 53.569619 ] } },
{ "type": "Feature", "properties": { "A": "1", "Name": "Ahoj Kinder", "Straße": "Mörkenstraße", "Nr.": "55", "PLZ": "22767", "Nummer": "55" }, "geometry": { "type": "Point", "coordinates": [ 9.94305115, 53.54958695 ] } },
{ "type": "Feature", "properties": { "A": "1", "Name": "KiTa ZwergenAufstand", "Straße": "Bahrenfelder Chaussee", "Nr.": "45", "PLZ": "22761", "Nummer": "45" }, "geometry": { "type": "Point", "coordinates": [ 9.9138668, 53.5648668 ] } },
{ "type": "Feature", "properties": { "A": "1", "Name": "Mendelssohn Kita", "Straße": "Bahrenfelder Chaussee", "Nr.": "77", "PLZ": "22761", "Nummer": "77" }, "geometry": { "type": "Point", "coordinates": [ 9.9075254, 53.5668577 ] } },
{ "type": "Feature", "properties": { "A": "1", "Name": "Mien Lüttje Welt", "Straße": "Bahrenfelder Steindamm", "Nr.": "52", "PLZ": "22761", "Nummer": "52" }, "geometry": { "type": "Point", "coordinates": [ 9.9254969, 53.5609276 ] } },
{ "type": "Feature", "properties": { "A": "3", "Name": "Tagespflege Parkquartier Hohenfelde", "Straße": "Mühlendamm", "Nr.": "31", "PLZ": "22087", "Nummer": "31" }, "geometry": { "type": "Point", "coordinates": [ 10.0246415, 53.5617004 ] } },
{ "type": "Feature", "properties": { "A": "1", "Name": "KiTa Hansekinder Mühlenkamp", "Straße": "Mühlenkamp", "Nr.": "43", "PLZ": "22303", "Nummer": "43" }, "geometry": { "type": "Point", "coordinates": [ 10.0101593, 53.5826166 ] } },
{ "type": "Feature", "properties": { "A": "1", "Name": "KiGa SPOKIS e.V. Bewegungskindergarten im VfL 93", "Straße": "Barmbeker Straße", "Nr.": "62", "PLZ": "22303", "Nummer": "62" }, "geometry": { "type": "Point", "coordinates": [ 10.0169408302866, 53.58816675 ] } },
{ "type": "Feature", "properties": { "A": "1", "Name": "KiTa Kindervilla Jenfeld", "Straße": "Barsbütteler Straße", "Nr.": "67", "PLZ": "22043", "Nummer": "67" }, "geometry": { "type": "Point", "coordinates": [ 10.1454802669451, 53.5705995 ] } },
{ "type": "Feature", "properties": { "A": "1", "Name": "Monkeyhaus", "Straße": "Nagelsweg", "Nr.": "19", "PLZ": "20097", "Nummer": "19" }, "geometry": { "type": "Point", "coordinates": [ 10.0168518, 53.5506798 ] } },
{ "type": "Feature", "properties": { "A": "1", "Name": "Ev. KiTa der Martin-Luther-Gemeinde", "Straße": "Bebelallee", "Nr.": "156a", "PLZ": "22297", "Nummer": "156a" }, "geometry": { "type": "Point", "coordinates": [ 10.010365520110399, 53.60928355 ] } },
{ "type": "Feature", "properties": { "A": "1", "Name": "KiTa Kinderladen Donnerlüttchen", "Straße": "Behringstraße", "Nr.": "11", "PLZ": "22765", "Nummer": "11" }, "geometry": { "type": "Point", "coordinates": [ 9.924682824831081, 53.5543837 ] } },
{ "type": "Feature", "properties": { "A": "1", "Name": "Anscharkrümel", "Straße": "Nedderfeld", "Nr.": "110b", "PLZ": "22529", "Nummer": "110b" }, "geometry": { "type": "Point", "coordinates": [ 9.9837604, 53.6011094 ] } },
{ "type": "Feature", "properties": { "A": "1", "Name": "KiTa Kinderkrippe Nesthäkchen", "Straße": "Behringstraße", "Nr.": "21", "PLZ": "22765", "Nummer": "21" }, "geometry": { "type": "Point", "coordinates": [ 9.92326212547648, 53.5541762 ] } },
{ "type": "Feature", "properties": { "A": "1", "Name": "KiTa Behringstraße", "Straße": "Behringstraße", "Nr.": "82a", "PLZ": "22763", "Nummer": "82a" }, "geometry": { "type": "Point", "coordinates": [ 9.91211393152739, 53.554832115865693 ] } },
{ "type": "Feature", "properties": { "A": "1", "Name": "AWO Kita  \"Am Inselpark\"\"\"", "Straße": "Neuenfelder Straße", "Nr.": "33b", "PLZ": "21109", "Nummer": "33b" }, "geometry": { "type": "Point", "coordinates": [ 10.0094392, 53.4963541 ] } },
{ "type": "Feature", "properties": { "A": "3", "Name": "KerVita; Senioren-Zentrum \"Am Inselpark\"\"\"", "Straße": "Neuenfelder Straße", "Nr.": "33", "PLZ": "21109", "Nummer": "33" }, "geometry": { "type": "Point", "coordinates": [ 10.0042387, 53.4964652 ] } },
{ "type": "Feature", "properties": { "A": "1", "Name": "DOM-Kindergarten", "Straße": "Neuer Kamp", "Nr.": "30", "PLZ": "20359", "Nummer": "30" }, "geometry": { "type": "Point", "coordinates": [ 9.9679333, 53.5581388 ] } },
{ "type": "Feature", "properties": { "A": "3", "Name": "HSP Tagespflege", "Straße": "Neusurenland", "Nr.": "104", "PLZ": "22159", "Nummer": "104" }, "geometry": { "type": "Point", "coordinates": [ 10.106645739981966, 53.614940446347433 ] } },
{ "type": "Feature", "properties": { "A": "1", "Name": "KiTa Niedergeorgswerder Deich", "Straße": "Niedergeorgswerder Deich", "Nr.": "79", "PLZ": "21109", "Nummer": "79" }, "geometry": { "type": "Point", "coordinates": [ 10.0207294922707, 53.51077755 ] } },
{ "type": "Feature", "properties": { "A": "1", "Name": "PAS PAKITA PraxisAusbildungs- &\nKindertagesstätte", "Straße": "Niendorfer Marktplatz", "Nr.": "5", "PLZ": "22459", "Nummer": "5" }, "geometry": { "type": "Point", "coordinates": [ 9.948958304663087, 53.617891180511364 ] } },
{ "type": "Feature", "properties": { "A": "1", "Name": "KiGa Wurzelzwerge", "Straße": "Niendorfer Marktplatz", "Nr.": "20", "PLZ": "22459", "Nummer": "20" }, "geometry": { "type": "Point", "coordinates": [ 9.9495275, 53.6185124 ] } },
{ "type": "Feature", "properties": { "A": "1", "Name": "KiTa Bekassinenau", "Straße": "Bekassinenau", "Nr.": "126", "PLZ": "22147", "Nummer": "126" }, "geometry": { "type": "Point", "coordinates": [ 10.135093352581899, 53.6206682 ] } },
{ "type": "Feature", "properties": { "A": "1", "Name": "Hüpfzwerge", "Straße": "Nordlandweg", "Nr.": "43", "PLZ": "22145", "Nummer": "43" }, "geometry": { "type": "Point", "coordinates": [ 10.1673441296282, 53.63023275 ] } },
{ "type": "Feature", "properties": { "A": "1", "Name": "KiTa Rasselbande", "Straße": "Notkestraße", "Nr.": "23", "PLZ": "22607", "Nummer": "23" }, "geometry": { "type": "Point", "coordinates": [ 9.885973101744179, 53.5728735 ] } },
{ "type": "Feature", "properties": { "A": "1", "Name": "Kinderwelt@DESY", "Straße": "Notkestraße", "Nr.": "85", "PLZ": "22607", "Nummer": "85" }, "geometry": { "type": "Point", "coordinates": [ 9.8808542, 53.5764539 ] } },
{ "type": "Feature", "properties": { "A": "1", "Name": "KiTa Löwenzahn am Unfallkrankenhaus Hamburg", "Straße": "Bergedorfer Straße", "Nr.": "10", "PLZ": "21033", "Nummer": "10" }, "geometry": { "type": "Point", "coordinates": [ 10.177008781170526, 53.506614657091674 ] } },
{ "type": "Feature", "properties": { "A": "4", "Name": "BG Klinikum Hamburg gGmbH", "Straße": "Bergedorfer Straße", "Nr.": "10", "PLZ": "21033", "Nummer": "10" }, "geometry": { "type": "Point", "coordinates": [ 10.176681849218852, 53.506420198151396 ] } },
{ "type": "Feature", "properties": { "A": "1", "Name": "KiTa Bernadottestraße", "Straße": "Bernadottestraße", "Nr.": "128a", "PLZ": "22605", "Nummer": "128a" }, "geometry": { "type": "Point", "coordinates": [ 9.9039752, 53.5499089 ] } },
{ "type": "Feature", "properties": { "A": "3", "Name": "Fallen Anker", "Straße": "Bernadottestraße", "Nr.": "140", "PLZ": "22605", "Nummer": "140" }, "geometry": { "type": "Point", "coordinates": [ 9.90300019793635, 53.55003865 ] } },
{ "type": "Feature", "properties": { "A": "1", "Name": "AWO Kita Sonnenhügel", "Straße": "Berner Allee", "Nr.": "66", "PLZ": "22159", "Nummer": "66" }, "geometry": { "type": "Point", "coordinates": [ 10.1222225, 53.6267608 ] } },
{ "type": "Feature", "properties": { "A": "3", "Name": "Seniorenwohnanlage Walddörfer", "Straße": "Berner Allee", "Nr.": "3", "PLZ": "22159", "Nummer": "3" }, "geometry": { "type": "Point", "coordinates": [ 10.1222225, 53.6267608 ] } },
{ "type": "Feature", "properties": { "A": "3", "Name": "Theodor-Fliedner-Haus", "Straße": "Berner Chaussee", "Nr.": "37-41", "PLZ": "22175", "Nummer": "37-41" }, "geometry": { "type": "Point", "coordinates": [ 10.086621036398601, 53.6182371 ] } },
{ "type": "Feature", "properties": { "A": "1", "Name": "KiGa Stadtparkknirpse", "Straße": "Ohlsdorfer Straße", "Nr.": "30", "PLZ": "22299", "Nummer": "30" }, "geometry": { "type": "Point", "coordinates": [ 10.0023712, 53.5962092 ] } },
{ "type": "Feature", "properties": { "A": "1", "Name": "KiTa Berner Heerweg", "Straße": "Berner Heerweg", "Nr.": "162", "PLZ": "22159", "Nummer": "162" }, "geometry": { "type": "Point", "coordinates": [ 10.1202897572752, 53.60513985 ] } },
{ "type": "Feature", "properties": { "A": "1", "Name": "Hummelhaus", "Straße": "Berner Straße", "Nr.": "114", "PLZ": "22145", "Nummer": "114" }, "geometry": { "type": "Point", "coordinates": [ 10.1469164190099, 53.62311065 ] } },
{ "type": "Feature", "properties": { "A": "3", "Name": "DOMICIL - Seniorenpflegeheim Jenfeld GmbH", "Straße": "Öjendorfer Damm", "Nr.": "97", "PLZ": "22043", "Nummer": "97" }, "geometry": { "type": "Point", "coordinates": [ 10.1343015382297, 53.5747658 ] } },
{ "type": "Feature", "properties": { "A": "1", "Name": "KiTa Beutnerring", "Straße": "Beutnerring", "Nr.": "2", "PLZ": "21077", "Nummer": "2" }, "geometry": { "type": "Point", "coordinates": [ 9.9541591, 53.4430336 ] } },
{ "type": "Feature", "properties": { "A": "1", "Name": "KiGa Falkennest", "Straße": "Öjendorfer Weg", "Nr.": "32", "PLZ": "22119", "Nummer": "32" }, "geometry": { "type": "Point", "coordinates": [ 10.1107211, 53.5424234 ] } },
{ "type": "Feature", "properties": { "A": "1", "Name": "Musik-Kita Palaststrolche", "Straße": "Öjendorfer Weg", "Nr.": "30a", "PLZ": "22119", "Nummer": "30a" }, "geometry": { "type": "Point", "coordinates": [ 10.1105657, 53.5421651 ] } },
{ "type": "Feature", "properties": { "A": "1", "Name": "FRÖBEL - KIndergarten Billstedt", "Straße": "Billstedter Hauptstraße", "Nr.": "12", "PLZ": "22111", "Nummer": "12" }, "geometry": { "type": "Point", "coordinates": [ 10.0971528094765, 53.5416553 ] } },
{ "type": "Feature", "properties": { "A": "1", "Name": "KiTa Billstedter Hauptstraße", "Straße": "Billstedter Hauptstraße", "Nr.": "112", "PLZ": "22117", "Nummer": "112" }, "geometry": { "type": "Point", "coordinates": [ 10.1092561, 53.5363846 ] } },
{ "type": "Feature", "properties": { "A": "1", "Name": "Kath. KiTa Sonnenblume", "Straße": "Oldenfelder Straße", "Nr.": "27", "PLZ": "22143", "Nummer": "27" }, "geometry": { "type": "Point", "coordinates": [ 10.155233878361701, 53.6085124 ] } },
{ "type": "Feature", "properties": { "A": "1", "Name": "KiTa Königskinderladen", "Straße": "Oldesloer Straße", "Nr.": "122", "PLZ": "22457", "Nummer": "122" }, "geometry": { "type": "Point", "coordinates": [ 9.921693, 53.6377813 ] } },
{ "type": "Feature", "properties": { "A": "3", "Name": "PRO VITA Seniorenpflegeheim \"Emilienhof\"\"\"", "Straße": "Ölmühlenweg", "Nr.": "78", "PLZ": "22047", "Nummer": "78" }, "geometry": { "type": "Point", "coordinates": [ 10.101202040938899, 53.58439825 ] } },
{ "type": "Feature", "properties": { "A": "1", "Name": "KiTa Mühlenhof", "Straße": "Ölmühlenweg", "Nr.": "33", "PLZ": "22047", "Nummer": "33" }, "geometry": { "type": "Point", "coordinates": [ 10.1009938034905, 53.58260055 ] } },
{ "type": "Feature", "properties": { "A": "1", "Name": "FRÖBEL-Kindergarten Elbwichtel", "Straße": "Osdorfer Landstraße", "Nr.": "137", "PLZ": "22609", "Nummer": "137" }, "geometry": { "type": "Point", "coordinates": [ 9.860666061118989, 53.572262188780314 ] } },
{ "type": "Feature", "properties": { "A": "1", "Name": "Mulles Kindergarten", "Straße": "Osdorfer Landstraße", "Nr.": "323a", "PLZ": "22589", "Nummer": "323a" }, "geometry": { "type": "Point", "coordinates": [ 9.83329385164464, 53.5743614 ] } },
{ "type": "Feature", "properties": { "A": "3", "Name": "Ev. Bugenhagen-Haus", "Straße": "Osdorfer Landstraße", "Nr.": "28", "PLZ": "22607", "Nummer": "28" }, "geometry": { "type": "Point", "coordinates": [ 9.869252824667891, 53.57182485 ] } },
{ "type": "Feature", "properties": { "A": "2", "Name": "Grundschule Groß Flottbek", "Straße": "Osdorfer Weg", "Nr.": "24", "PLZ": "22607", "Nummer": "24" }, "geometry": { "type": "Point", "coordinates": [ 9.89428997207534, 53.5677422 ] } },
{ "type": "Feature", "properties": { "A": "1", "Name": "KiTa Villa Vivendi 2", "Straße": "Osdorfer Weg", "Nr.": "64", "PLZ": "22607", "Nummer": "64" }, "geometry": { "type": "Point", "coordinates": [ 9.888371925424256, 53.568188891749806 ] } },
{ "type": "Feature", "properties": { "A": "1", "Name": "KiTa Lütt Tabea", "Straße": "Bockhorst", "Nr.": "122", "PLZ": "22589", "Nummer": "122" }, "geometry": { "type": "Point", "coordinates": [ 9.8378851, 53.5706034 ] } },
{ "type": "Feature", "properties": { "A": "1", "Name": "KiTa Otto-Brenner-Straße", "Straße": "Otto-Brenner-Straße", "Nr.": "45", "PLZ": "21109", "Nummer": "45" }, "geometry": { "type": "Point", "coordinates": [ 10.0160921, 53.485772 ] } },
{ "type": "Feature", "properties": { "A": "1", "Name": "KiTa Auf der Uhlenhorst", "Straße": "Papenhuder Straße", "Nr.": "26", "PLZ": "22087", "Nummer": "26" }, "geometry": { "type": "Point", "coordinates": [ 10.0195785, 53.5665971 ] } },
{ "type": "Feature", "properties": { "A": "1", "Name": "KiTa Elbtunnelkids AK Altona", "Straße": "Paul-Ehrlich-Straße", "Nr.": "1", "PLZ": "22763", "Nummer": "1" }, "geometry": { "type": "Point", "coordinates": [ 9.9003539, 53.5544891 ] } },
{ "type": "Feature", "properties": { "A": "4", "Name": "Asklepios Klinik Altona", "Straße": "Paul-Ehrlich-Straße", "Nr.": "1", "PLZ": "22763", "Nummer": "1" }, "geometry": { "type": "Point", "coordinates": [ 9.9003539, 53.5544891 ] } },
{ "type": "Feature", "properties": { "A": "2", "Name": "Bildungszentrum für Blinde und Sehbehinderte", "Straße": "Borgweg", "Nr.": "17 a", "PLZ": "22303", "Nummer": "17 a" }, "geometry": { "type": "Point", "coordinates": [ 10.0135060495407, 53.5915768 ] } },
{ "type": "Feature", "properties": { "A": "1", "Name": "Kinderbetreuungszentrum Bunte Biene", "Straße": "Bornheide", "Nr.": "23", "PLZ": "22549", "Nummer": "23" }, "geometry": { "type": "Point", "coordinates": [ 9.852707993574031, 53.58360455 ] } },
{ "type": "Feature", "properties": { "A": "1", "Name": "KiTa am Spielhafen", "Straße": "Bornheide", "Nr.": "99", "PLZ": "22549", "Nummer": "99" }, "geometry": { "type": "Point", "coordinates": [ 9.8525921, 53.5932812 ] } },
{ "type": "Feature", "properties": { "A": "1", "Name": "KiTa Lucky Kids", "Straße": "Pezolddamm", "Nr.": "23", "PLZ": "22175", "Nummer": "23" }, "geometry": { "type": "Point", "coordinates": [ 10.100141303907964, 53.62069175942667 ] } },
{ "type": "Feature", "properties": { "A": "1", "Name": "Ev. KiGa St. Peter", "Straße": "Borsteler Chaussee", "Nr.": "139a", "PLZ": "22453", "Nummer": "139a" }, "geometry": { "type": "Point", "coordinates": [ 9.976850893796248, 53.607847036096473 ] } },
{ "type": "Feature", "properties": { "A": "1", "Name": "ASB Kita Pillauer Straße", "Straße": "Pillauer Straße", "Nr.": "90a", "PLZ": "22047", "Nummer": "90a" }, "geometry": { "type": "Point", "coordinates": [ 10.092487604310101, 53.59465855 ] } },
{ "type": "Feature", "properties": { "A": "1", "Name": "Ev. KiTa der Paul-Gerhardt Gemeinde", "Straße": "Braamkamp", "Nr.": "51", "PLZ": "22297", "Nummer": "51" }, "geometry": { "type": "Point", "coordinates": [ 10.0050894, 53.6002184 ] } },
{ "type": "Feature", "properties": { "A": "3", "Name": "Tagespflege Poppenbüttel e.V.", "Straße": "Poppenbütteler Bogen", "Nr.": "2", "PLZ": "22399", "Nummer": "2" }, "geometry": { "type": "Point", "coordinates": [ 10.06478099404524, 53.669643282848504 ] } },
{ "type": "Feature", "properties": { "A": "3", "Name": "Haus Duvenstedt", "Straße": "Poppenbütteler Chaussee", "Nr.": "23", "PLZ": "22397", "Nummer": "23" }, "geometry": { "type": "Point", "coordinates": [ 10.1029381, 53.7053105 ] } },
{ "type": "Feature", "properties": { "A": "1", "Name": "KiTa Poppenbütteler Weg", "Straße": "Poppenbütteler Weg", "Nr.": "184", "PLZ": "22399", "Nummer": "184" }, "geometry": { "type": "Point", "coordinates": [ 10.0749945290843, 53.6520598 ] } },
{ "type": "Feature", "properties": { "A": "1", "Name": "KiTa KiKu Kinderland Hamburg", "Straße": "Bramfelder Chaussee", "Nr.": "1", "PLZ": "22177", "Nummer": "1" }, "geometry": { "type": "Point", "coordinates": [ 10.0588989, 53.5937474 ] } },
{ "type": "Feature", "properties": { "A": "1", "Name": "KiTa Lilliputs", "Straße": "Bramfelder Chaussee", "Nr.": "20a", "PLZ": "22177", "Nummer": "20a" }, "geometry": { "type": "Point", "coordinates": [ 10.0608570248541, 53.59415775 ] } },
{ "type": "Feature", "properties": { "A": "3", "Name": "Stiftung Veteranenheim", "Straße": "Poppenbütteler Weg", "Nr.": "186-190", "PLZ": "22399", "Nummer": "186-190" }, "geometry": { "type": "Point", "coordinates": [ 10.0851418, 53.6567639 ] } },
{ "type": "Feature", "properties": { "A": "1", "Name": "KiGa Bramfeld e. V.", "Straße": "Bramfelder Chaussee", "Nr.": "14a", "PLZ": "22177", "Nummer": "14a" }, "geometry": { "type": "Point", "coordinates": [ 10.06053545, 53.5938936 ] } },
{ "type": "Feature", "properties": { "A": "1", "Name": "AWO Kita Villa Kunterbunt", "Straße": "Poppenbütteler Weg", "Nr.": "197", "PLZ": "22399", "Nummer": "197" }, "geometry": { "type": "Point", "coordinates": [ 10.084642083914201, 53.6588942 ] } },
{ "type": "Feature", "properties": { "A": "1", "Name": "Ev. KiGa Osterkirche", "Straße": "Bramfelder Chaussee", "Nr.": "202b", "PLZ": "22177", "Nummer": "202b" }, "geometry": { "type": "Point", "coordinates": [ 10.074459655323301, 53.60960095 ] } },
{ "type": "Feature", "properties": { "A": "1", "Name": "AWO Kita Hohenbuchen", "Straße": "Poppenbüttler Hauptstraße", "Nr.": "44", "PLZ": "22399", "Nummer": "44" }, "geometry": { "type": "Point", "coordinates": [ 10.092775803301899, 53.66594965 ] } },
{ "type": "Feature", "properties": { "A": "3", "Name": "SHT Seniorenzentrum Hanse Tagespflege UG", "Straße": "Bramfelder Chaussee", "Nr.": "29", "PLZ": "22177", "Nummer": "29" }, "geometry": { "type": "Point", "coordinates": [ 10.0614191043834, 53.5956958 ] } },
{ "type": "Feature", "properties": { "A": "1", "Name": "KiGa Menschenskinder", "Straße": "Poppenbüttler Hauptstraße", "Nr.": "46", "PLZ": "22399", "Nummer": "46" }, "geometry": { "type": "Point", "coordinates": [ 10.09298195, 53.666057 ] } },
{ "type": "Feature", "properties": { "A": "2", "Name": "Stadtteilschule Bramfeld", "Straße": "Bramfelder Dorfplatz", "Nr.": "5", "PLZ": "22179", "Nummer": "5" }, "geometry": { "type": "Point", "coordinates": [ 10.0776103865918, 53.61472105 ] } },
{ "type": "Feature", "properties": { "A": "2", "Name": "Stadtteilschule Barmbek", "Straße": "Bramfelder Straße", "Nr.": "157", "PLZ": "22305", "Nummer": "157" }, "geometry": { "type": "Point", "coordinates": [ 10.0574659320422, 53.5928834 ] } },
{ "type": "Feature", "properties": { "A": "1", "Name": "KiTa Kinderzimmer Seebek", "Straße": "Bramfelder Straße", "Nr.": "153", "PLZ": "22305", "Nummer": "153" }, "geometry": { "type": "Point", "coordinates": [ 10.0568656, 53.5923294 ] } },
{ "type": "Feature", "properties": { "A": "1", "Name": "Ev. KiGa Am Kirchberg", "Straße": "Bredenbekstraße", "Nr.": "57", "PLZ": "22397", "Nummer": "57" }, "geometry": { "type": "Point", "coordinates": [ 10.130328, 53.6946482 ] } },
{ "type": "Feature", "properties": { "A": "1", "Name": "KiTa Melia Wohlfühl- und Bildungskinderladen\nGbR", "Straße": "Breitenfelder Straße", "Nr.": "30", "PLZ": "20251", "Nummer": "30" }, "geometry": { "type": "Point", "coordinates": [ 9.9735973, 53.5859604 ] } },
{ "type": "Feature", "properties": { "A": "1", "Name": "KiTa Bremer Straße", "Straße": "Bremer Straße", "Nr.": "105b", "PLZ": "21073", "Nummer": "105b" }, "geometry": { "type": "Point", "coordinates": [ 9.973476641784201, 53.451986 ] } },
{ "type": "Feature", "properties": { "A": "1", "Name": "Naturkindergarten Vogelhüttenberg", "Straße": "Bremer Straße", "Nr.": "242a", "PLZ": "21077", "Nummer": "242a" }, "geometry": { "type": "Point", "coordinates": [ 9.949020398475611, 53.44379955 ] } },
{ "type": "Feature", "properties": { "A": "2", "Name": "Grundschule Altrahlstedt", "Straße": "Brockdorffstraße", "Nr.": "2", "PLZ": "22149", "Nummer": "2" }, "geometry": { "type": "Point", "coordinates": [ 10.152713072488663, 53.596244273066098 ] } },
{ "type": "Feature", "properties": { "A": "1", "Name": "Kinderkate", "Straße": "Pulverhofsweg", "Nr.": "4", "PLZ": "22159", "Nummer": "4" }, "geometry": { "type": "Point", "coordinates": [ 10.118714604930373, 53.599598282254945 ] } },
{ "type": "Feature", "properties": { "A": "1", "Name": "KiTa Happy Land", "Straße": "Quedlinburger Weg", "Nr.": "68", "PLZ": "22455", "Nummer": "68" }, "geometry": { "type": "Point", "coordinates": [ 9.94283357160219, 53.63512305 ] } },
{ "type": "Feature", "properties": { "A": "1", "Name": "KiTa Rahlstedter Bahnhofstraße", "Straße": "Rahlstedter Bahnhofstraße", "Nr.": "43", "PLZ": "22143", "Nummer": "43" }, "geometry": { "type": "Point", "coordinates": [ 10.1547768, 53.6024754 ] } },
{ "type": "Feature", "properties": { "A": "1", "Name": "KiTa Mafalda", "Straße": "Budapester Straße", "Nr.": "13", "PLZ": "20359", "Nummer": "13" }, "geometry": { "type": "Point", "coordinates": [ 9.9671857, 53.5517077 ] } },
{ "type": "Feature", "properties": { "A": "1", "Name": "Ev. KiTa St. Pauli", "Straße": "Budapester Straße", "Nr.": "34", "PLZ": "20359", "Nummer": "34" }, "geometry": { "type": "Point", "coordinates": [ 9.9646013, 53.5539932 ] } },
{ "type": "Feature", "properties": { "A": "1", "Name": "Fliegenpilz Rahlstedt", "Straße": "Rahlstedter Straße", "Nr.": "49", "PLZ": "22149", "Nummer": "49" }, "geometry": { "type": "Point", "coordinates": [ 10.1460739, 53.5949443 ] } },
{ "type": "Feature", "properties": { "A": "1", "Name": "KiTa Kinderladen Karolinenviertel", "Straße": "Budapester Straße", "Nr.": "42", "PLZ": "20359", "Nummer": "42" }, "geometry": { "type": "Point", "coordinates": [ 9.96428853052495, 53.5547848 ] } },
{ "type": "Feature", "properties": { "A": "1", "Name": "KiTa Räuberhöhle Rahlstedt", "Straße": "Rahlstedter Straße", "Nr.": "64", "PLZ": "22149", "Nummer": "64" }, "geometry": { "type": "Point", "coordinates": [ 10.1495778, 53.5951864 ] } },
{ "type": "Feature", "properties": { "A": "4", "Name": "Psychiatrische Tagesklinik Hamburg-Mitte", "Straße": "Budapester Straße", "Nr.": "38", "PLZ": "20359", "Nummer": "38" }, "geometry": { "type": "Point", "coordinates": [ 9.9644452, 53.5545149 ] } },
{ "type": "Feature", "properties": { "A": "1", "Name": "Kinderhaus Rahlstedt", "Straße": "Rahlstedter Straße", "Nr.": "112", "PLZ": "22143", "Nummer": "112" }, "geometry": { "type": "Point", "coordinates": [ 10.1569394, 53.6003994 ] } },
{ "type": "Feature", "properties": { "A": "3", "Name": "Tagespflege Sozialer Dienst K.Kaiser GmbH", "Straße": "Rahlstedter Straße", "Nr.": "189", "PLZ": "22143", "Nummer": "189" }, "geometry": { "type": "Point", "coordinates": [ 10.1610852, 53.604839 ] } },
{ "type": "Feature", "properties": { "A": "3", "Name": "Parkresidenz Rahlstedt", "Straße": "Rahlstedter Straße", "Nr.": "29", "PLZ": "22149", "Nummer": "29" }, "geometry": { "type": "Point", "coordinates": [ 10.1424262, 53.5938102 ] } },
{ "type": "Feature", "properties": { "A": "2", "Name": "Katholische Schule Farmsen", "Straße": "Rahlstedter Weg", "Nr.": "15", "PLZ": "22159", "Nummer": "15" }, "geometry": { "type": "Point", "coordinates": [ 10.12207403999478, 53.607211023571018 ] } },
{ "type": "Feature", "properties": { "A": "1", "Name": "Kath. KiGa Arche Noah", "Straße": "Rahlstedter Weg", "Nr.": "15", "PLZ": "22159", "Nummer": "15" }, "geometry": { "type": "Point", "coordinates": [ 10.121926067164987, 53.607057382109723 ] } },
{ "type": "Feature", "properties": { "A": "1", "Name": "Hort an der Katholischen Schule Farmsen", "Straße": "Rahlstedter Weg", "Nr.": "15", "PLZ": "22159", "Nummer": "15" }, "geometry": { "type": "Point", "coordinates": [ 10.121802756473491, 53.6067281488615 ] } },
{ "type": "Feature", "properties": { "A": "1", "Name": "WABE-Kita Rahlstedter Weg", "Straße": "Rahlstedter Weg", "Nr.": "89", "PLZ": "22147", "Nummer": "89" }, "geometry": { "type": "Point", "coordinates": [ 10.1297659191584, 53.60030295 ] } },
{ "type": "Feature", "properties": { "A": "1", "Name": "ASB Kita Burgwedel", "Straße": "Burgwedel", "Nr.": "3a", "PLZ": "22457", "Nummer": "3a" }, "geometry": { "type": "Point", "coordinates": [ 9.9166007743311, 53.6366367 ] } },
{ "type": "Feature", "properties": { "A": "3", "Name": "Malteserstift St. Elisabeth", "Straße": "Rahlstedter Weg", "Nr.": "17", "PLZ": "22159", "Nummer": "17" }, "geometry": { "type": "Point", "coordinates": [ 10.1217977219013, 53.606222 ] } },
{ "type": "Feature", "properties": { "A": "1", "Name": "KiTa Kindsköpfe", "Straße": "Burgwedel", "Nr.": "3b", "PLZ": "22457", "Nummer": "3b" }, "geometry": { "type": "Point", "coordinates": [ 9.916419948198561, 53.6366559 ] } },
{ "type": "Feature", "properties": { "A": "1", "Name": "Ev. KiTa Pauluskirche", "Straße": "Caspar-Voght-Straße", "Nr.": "55", "PLZ": "20535", "Nummer": "55" }, "geometry": { "type": "Point", "coordinates": [ 10.0604446, 53.5615575 ] } },
{ "type": "Feature", "properties": { "A": "2", "Name": "Katholische Schule Neugraben", "Straße": "Cuxhavener Straße", "Nr.": "379", "PLZ": "21149", "Nummer": "379" }, "geometry": { "type": "Point", "coordinates": [ 9.845327935816179, 53.4717906 ] } },
{ "type": "Feature", "properties": { "A": "1", "Name": "KiGa Don Bosco", "Straße": "Cuxhavener Straße", "Nr.": "178", "PLZ": "21149", "Nummer": "178" }, "geometry": { "type": "Point", "coordinates": [ 9.884122175700821, 53.4723539 ] } },
{ "type": "Feature", "properties": { "A": "1", "Name": "KiTa Cuxi Kids", "Straße": "Cuxhavener Straße", "Nr.": "192", "PLZ": "21149", "Nummer": "192" }, "geometry": { "type": "Point", "coordinates": [ 9.88154352726143, 53.47230355 ] } },
{ "type": "Feature", "properties": { "A": "1", "Name": "Ev. KiGa Michaelis", "Straße": "Cuxhavener Straße", "Nr.": "323", "PLZ": "21149", "Nummer": "323" }, "geometry": { "type": "Point", "coordinates": [ 9.828525527547647, 53.470924487824824 ] } },
{ "type": "Feature", "properties": { "A": "1", "Name": "KiTa Rehrstieg", "Straße": "Rehrstieg", "Nr.": "38a", "PLZ": "21147", "Nummer": "38a" }, "geometry": { "type": "Point", "coordinates": [ 9.87552992637735, 53.4761738 ] } },
{ "type": "Feature", "properties": { "A": "1", "Name": "KiTa Klinikum Eilbek, Schön Kliniken", "Straße": "Dehnhaide", "Nr.": "120", "PLZ": "22081", "Nummer": "120" }, "geometry": { "type": "Point", "coordinates": [ 10.0531457505263, 53.57772235 ] } },
{ "type": "Feature", "properties": { "A": "4", "Name": "Schön Klinik Hamburg Eilbek", "Straße": "Dehnhaide", "Nr.": "120", "PLZ": "22081", "Nummer": "120" }, "geometry": { "type": "Point", "coordinates": [ 10.0531457505263, 53.57772235 ] } },
{ "type": "Feature", "properties": { "A": "3", "Name": "Seniorenzentrum Kapernaum", "Straße": "Rennbahnstraße", "Nr.": "51-53", "PLZ": "22111", "Nummer": "51-53" }, "geometry": { "type": "Point", "coordinates": [ 10.082079479794301, 53.5568279 ] } },
{ "type": "Feature", "properties": { "A": "1", "Name": "KiTa Kinderhaus Reventlowstraße", "Straße": "Reventlowstraße", "Nr.": "56", "PLZ": "22605", "Nummer": "56" }, "geometry": { "type": "Point", "coordinates": [ 9.88825304163506, 53.5586112 ] } },
{ "type": "Feature", "properties": { "A": "1", "Name": "KiTa Meine Kita", "Straße": "Dithmarscher Straße", "Nr.": "27", "PLZ": "22049", "Nummer": "27" }, "geometry": { "type": "Point", "coordinates": [ 10.0601155, 53.5782405 ] } },
{ "type": "Feature", "properties": { "A": "1", "Name": "Deutsch-Chinesischer Kindergarten Hamburg", "Straße": "Doormannsweg", "Nr.": "41", "PLZ": "20259", "Nummer": "41" }, "geometry": { "type": "Point", "coordinates": [ 9.9536144, 53.5684035 ] } },
{ "type": "Feature", "properties": { "A": "1", "Name": "KiTa Lieblings-Kita", "Straße": "Rodigallee", "Nr.": "111", "PLZ": "22043", "Nummer": "111" }, "geometry": { "type": "Point", "coordinates": [ 10.108559, 53.5710323 ] } },
{ "type": "Feature", "properties": { "A": "1", "Name": "Ev. KiTa Der Gute Hirte-Jenfeld", "Straße": "Rodigallee", "Nr.": "207", "PLZ": "22043", "Nummer": "207" }, "geometry": { "type": "Point", "coordinates": [ 10.1208121, 53.5712576 ] } },
{ "type": "Feature", "properties": { "A": "1", "Name": "KiGa Franzhörnchen", "Straße": "Rolfinckstraße", "Nr.": "28a", "PLZ": "22391", "Nummer": "28a" }, "geometry": { "type": "Point", "coordinates": [ 10.0862934941297, 53.63974875 ] } },
{ "type": "Feature", "properties": { "A": "1", "Name": "KiTa Regenbogen", "Straße": "Röpraredder", "Nr.": "70", "PLZ": "21031", "Nummer": "70" }, "geometry": { "type": "Point", "coordinates": [ 10.2104843, 53.510847 ] } },
{ "type": "Feature", "properties": { "A": "1", "Name": "Ev. KiTa der Melanchthonkirchengemeinde", "Straße": "Ebertallee", "Nr.": "55", "PLZ": "22607", "Nummer": "55" }, "geometry": { "type": "Point", "coordinates": [ 9.88795463607074, 53.56743045 ] } },
{ "type": "Feature", "properties": { "A": "1", "Name": "Kath. KiGa St. Paulus-Augustinus", "Straße": "Ebertallee", "Nr.": "11a", "PLZ": "22607", "Nummer": "11a" }, "geometry": { "type": "Point", "coordinates": [ 9.88621709510481, 53.5638414 ] } },
{ "type": "Feature", "properties": { "A": "1", "Name": "KiTa Kinderhaus Rothenbaumchaussee 121", "Straße": "Rothenbaumchaussee", "Nr.": "121", "PLZ": "20149", "Nummer": "121" }, "geometry": { "type": "Point", "coordinates": [ 9.988135652287021, 53.5731164 ] } },
{ "type": "Feature", "properties": { "A": "1", "Name": "AWO Wald- Kita Bergedorf", "Straße": "Rothenhauschaussee", "Nr.": "235b", "PLZ": "21029", "Nummer": "235b" }, "geometry": { "type": "Point", "coordinates": [ 10.2632296, 53.47314995 ] } },
{ "type": "Feature", "properties": { "A": "3", "Name": "Marie Kroos-Stiftung", "Straße": "Ehestorfer Weg", "Nr.": "148", "PLZ": "21075", "Nummer": "148" }, "geometry": { "type": "Point", "coordinates": [ 9.935177756163981, 53.45517905 ] } },
{ "type": "Feature", "properties": { "A": "1", "Name": "KiTa Rübenkamp", "Straße": "Rübenkamp", "Nr.": "15", "PLZ": "22305", "Nummer": "15" }, "geometry": { "type": "Point", "coordinates": [ 10.040092911624299, 53.589257 ] } },
{ "type": "Feature", "properties": { "A": "1", "Name": "Haus Mignon Krippe", "Straße": "Rugenbarg", "Nr.": "22", "PLZ": "22549", "Nummer": "22" }, "geometry": { "type": "Point", "coordinates": [ 9.8472851, 53.5751775 ] } },
{ "type": "Feature", "properties": { "A": "1", "Name": "WABE-Kita Wirbelkinder", "Straße": "Rungedamm", "Nr.": "7", "PLZ": "21035", "Nummer": "7" }, "geometry": { "type": "Point", "coordinates": [ 10.1230402, 53.4939873 ] } },
{ "type": "Feature", "properties": { "A": "1", "Name": "Klitzeklein&kunterbunt", "Straße": "Ruscheweyhstraße", "Nr.": "34", "PLZ": "22399", "Nummer": "34" }, "geometry": { "type": "Point", "coordinates": [ 10.062311231191559, 53.652601403939848 ] } },
{ "type": "Feature", "properties": { "A": "1", "Name": "KiTa Paula und Max - Eilbeker Weg", "Straße": "Eilbeker Weg", "Nr.": "39", "PLZ": "22089", "Nummer": "39" }, "geometry": { "type": "Point", "coordinates": [ 10.0435255, 53.5690026 ] } },
{ "type": "Feature", "properties": { "A": "1", "Name": "KiTa WandseWichte", "Straße": "Rüterstraße", "Nr.": "66", "PLZ": "22041", "Nummer": "66" }, "geometry": { "type": "Point", "coordinates": [ 10.0768001771405, 53.57512825 ] } },
{ "type": "Feature", "properties": { "A": "1", "Name": "KiTa Eilbeker Weg", "Straße": "Eilbeker Weg", "Nr.": "53", "PLZ": "22089", "Nummer": "53" }, "geometry": { "type": "Point", "coordinates": [ 10.0444607, 53.5691306 ] } },
{ "type": "Feature", "properties": { "A": "2", "Name": "OKO Private School Talent-Schule Hamburg", "Straße": "Saarlandstraße", "Nr.": "30", "PLZ": "22303", "Nummer": "30" }, "geometry": { "type": "Point", "coordinates": [ 10.033847462867111, 53.587589928728143 ] } },
{ "type": "Feature", "properties": { "A": "1", "Name": "Ev. KiTa Versöhnungskirche", "Straße": "Eilbektal", "Nr.": "15", "PLZ": "22089", "Nummer": "15" }, "geometry": { "type": "Point", "coordinates": [ 10.0466748, 53.5721093 ] } },
{ "type": "Feature", "properties": { "A": "4", "Name": "Asklepios Klinikum Harburg", "Straße": "Eißendorfer Pferdeweg", "Nr.": "52", "PLZ": "21075", "Nummer": "52" }, "geometry": { "type": "Point", "coordinates": [ 9.94855714526893, 53.4594946 ] } },
{ "type": "Feature", "properties": { "A": "1", "Name": "KiTa Kunterbunt der Asklepios Klinik Harburg", "Straße": "Eißendorfer Pferdeweg", "Nr.": "52", "PLZ": "21075", "Nummer": "52" }, "geometry": { "type": "Point", "coordinates": [ 9.94855714526893, 53.4594946 ] } },
{ "type": "Feature", "properties": { "A": "1", "Name": "KiTa Sandkamp", "Straße": "Sandkamp", "Nr.": "35", "PLZ": "22111", "Nummer": "35" }, "geometry": { "type": "Point", "coordinates": [ 10.088974061164601, 53.55416265 ] } },
{ "type": "Feature", "properties": { "A": "2", "Name": "Rudolf-Steiner-Schule Nienstedten", "Straße": "Elbchaussee", "Nr.": "366", "PLZ": "22609", "Nummer": "366" }, "geometry": { "type": "Point", "coordinates": [ 9.85672081233032, 53.54909065 ] } },
{ "type": "Feature", "properties": { "A": "1", "Name": "Tagesmütter an der Elbe", "Straße": "Elbchaussee", "Nr.": "18", "PLZ": "22765", "Nummer": "18" }, "geometry": { "type": "Point", "coordinates": [ 9.93073177389857, 53.54676725 ] } },
{ "type": "Feature", "properties": { "A": "1", "Name": "KiTa Elbchaussee", "Straße": "Elbchaussee", "Nr.": "174", "PLZ": "22605", "Nummer": "174" }, "geometry": { "type": "Point", "coordinates": [ 9.909780708276399, 53.546045666868196 ] } },
{ "type": "Feature", "properties": { "A": "1", "Name": "Hort an der Rudolf- Steiner- Schule Nienstedten", "Straße": "Elbchaussee", "Nr.": "366", "PLZ": "22609", "Nummer": "366" }, "geometry": { "type": "Point", "coordinates": [ 9.85672081233032, 53.54909065 ] } },
{ "type": "Feature", "properties": { "A": "1", "Name": "Schneckenhäuschen", "Straße": "Saseler Chaussee", "Nr.": "86a", "PLZ": "22391", "Nummer": "86a" }, "geometry": { "type": "Point", "coordinates": [ 10.0990195666316, 53.64269725 ] } },
{ "type": "Feature", "properties": { "A": "1", "Name": "KiTa der Rudolf-Steiner-Schule Nienstedten", "Straße": "Elbchaussee", "Nr.": "366", "PLZ": "22609", "Nummer": "366" }, "geometry": { "type": "Point", "coordinates": [ 9.85672081233032, 53.54909065 ] } },
{ "type": "Feature", "properties": { "A": "1", "Name": "Ev. KiGa Vicelin-Sasel", "Straße": "Saseler Markt", "Nr.": "7", "PLZ": "22393", "Nummer": "7" }, "geometry": { "type": "Point", "coordinates": [ 10.113443286754899, 53.6546957 ] } },
{ "type": "Feature", "properties": { "A": "3", "Name": "Auguste-Viktoria-Stiftung", "Straße": "Elbchaussee", "Nr.": "88", "PLZ": "22763", "Nummer": "88" }, "geometry": { "type": "Point", "coordinates": [ 9.923207274662159, 53.54695695 ] } },
{ "type": "Feature", "properties": { "A": "3", "Name": "Elbschloss Residenz", "Straße": "Elbchaussee", "Nr.": "374", "PLZ": "22609", "Nummer": "374" }, "geometry": { "type": "Point", "coordinates": [ 9.8526359, 53.549438 ] } },
{ "type": "Feature", "properties": { "A": "1", "Name": "KiTa Elbgaustraße", "Straße": "Elbgaustraße", "Nr.": "172h", "PLZ": "22547", "Nummer": "172h" }, "geometry": { "type": "Point", "coordinates": [ 9.8850663, 53.5971526 ] } },
{ "type": "Feature", "properties": { "A": "2", "Name": "Monaddrei-Schule Hamburg", "Straße": "Schäferkampsallee", "Nr.": "27", "PLZ": "20357", "Nummer": "27" }, "geometry": { "type": "Point", "coordinates": [ 9.96759786278815, 53.56818015 ] } },
{ "type": "Feature", "properties": { "A": "1", "Name": "KiTa Montessori Kinderhaus monaddrei", "Straße": "Schäferkampsallee", "Nr.": "27", "PLZ": "20357", "Nummer": "27" }, "geometry": { "type": "Point", "coordinates": [ 9.96759786278815, 53.56818015 ] } },
{ "type": "Feature", "properties": { "A": "1", "Name": "Sternschnuppen", "Straße": "Schanzenstraße", "Nr.": "109a", "PLZ": "20357", "Nummer": "109a" }, "geometry": { "type": "Point", "coordinates": [ 9.965220894000927, 53.564381229517465 ] } },
{ "type": "Feature", "properties": { "A": "1", "Name": "Park-Kita Altrahlstedt", "Straße": "Scharbeutzer Straße", "Nr.": "27", "PLZ": "22147", "Nummer": "27" }, "geometry": { "type": "Point", "coordinates": [ 10.149017707487801, 53.59872255 ] } },
{ "type": "Feature", "properties": { "A": "3", "Name": "HSB-Familientagespflege", "Straße": "Scharbeutzer Straße", "Nr.": "54", "PLZ": "22147", "Nummer": "54" }, "geometry": { "type": "Point", "coordinates": [ 10.142529577968499, 53.6005041 ] } },
{ "type": "Feature", "properties": { "A": "1", "Name": "KiGa Hamburger Kinderstübchen", "Straße": "Eppendorfer Landstraße", "Nr.": "14", "PLZ": "20249", "Nummer": "14" }, "geometry": { "type": "Point", "coordinates": [ 9.983333975596659, 53.58582515 ] } },
{ "type": "Feature", "properties": { "A": "1", "Name": "AWO Kita Haynspark", "Straße": "Eppendorfer Landstraße", "Nr.": "148a", "PLZ": "20251", "Nummer": "148a" }, "geometry": { "type": "Point", "coordinates": [ 9.98941490097608, 53.59496065 ] } },
{ "type": "Feature", "properties": { "A": "1", "Name": "Villa Schief", "Straße": "Schenefelder Landstraße", "Nr.": "253", "PLZ": "22589", "Nummer": "253" }, "geometry": { "type": "Point", "coordinates": [ 9.822498174104579, 53.58125295 ] } },
{ "type": "Feature", "properties": { "A": "1", "Name": "Bilinguale Kita Blankenese", "Straße": "Schenefelder Landstraße", "Nr.": "1", "PLZ": "22587", "Nummer": "1" }, "geometry": { "type": "Point", "coordinates": [ 9.82357105, 53.56125575 ] } },
{ "type": "Feature", "properties": { "A": "1", "Name": "Kath. KiGa Maria Grün", "Straße": "Schenefelder Landstraße", "Nr.": "3", "PLZ": "22587", "Nummer": "3" }, "geometry": { "type": "Point", "coordinates": [ 9.82358485727848, 53.56157685 ] } },
{ "type": "Feature", "properties": { "A": "1", "Name": "Blankeneser Waldorfkindergarten  e. V.", "Straße": "Schenefelder Landstraße", "Nr.": "34", "PLZ": "22587", "Nummer": "34" }, "geometry": { "type": "Point", "coordinates": [ 9.8262423, 53.5634075 ] } },
{ "type": "Feature", "properties": { "A": "1", "Name": "KiGa Schenefelder Landstraße", "Straße": "Schenefelder Landstraße", "Nr.": "87", "PLZ": "22589", "Nummer": "87" }, "geometry": { "type": "Point", "coordinates": [ 9.8261795, 53.5676098 ] } },
{ "type": "Feature", "properties": { "A": "2", "Name": "Gymnasium Alstertal", "Straße": "Erdkampsweg", "Nr.": "89", "PLZ": "22335", "Nummer": "89" }, "geometry": { "type": "Point", "coordinates": [ 10.0176849671727, 53.63255345 ] } },
{ "type": "Feature", "properties": { "A": "1", "Name": "KiTa Schmusebacke 4", "Straße": "Schiffbeker Weg", "Nr.": "83", "PLZ": "22119", "Nummer": "83" }, "geometry": { "type": "Point", "coordinates": [ 10.106183, 53.5470857 ] } },
{ "type": "Feature", "properties": { "A": "1", "Name": "KiTa Erdkampsweg", "Straße": "Erdkampsweg", "Nr.": "64", "PLZ": "22335", "Nummer": "64" }, "geometry": { "type": "Point", "coordinates": [ 10.0218126325575, 53.63065995 ] } },
{ "type": "Feature", "properties": { "A": "1", "Name": "KiTa Lütte Sternenkieker", "Straße": "Erdkampsweg", "Nr.": "84", "PLZ": "22335", "Nummer": "84" }, "geometry": { "type": "Point", "coordinates": [ 10.02037, 53.6317441 ] } },
{ "type": "Feature", "properties": { "A": "1", "Name": "KiGa Murmeltier", "Straße": "Schleidenstraße", "Nr.": "4", "PLZ": "22083", "Nummer": "4" }, "geometry": { "type": "Point", "coordinates": [ 10.0338305, 53.5830293 ] } },
{ "type": "Feature", "properties": { "A": "1", "Name": "KiTa Kinderhaus Strollers", "Straße": "Erik-Blumenfeld-Platz", "Nr.": "13", "PLZ": "22587", "Nummer": "13" }, "geometry": { "type": "Point", "coordinates": [ 9.814523719675091, 53.5630046 ] } },
{ "type": "Feature", "properties": { "A": "2", "Name": "Schule Marmstorf", "Straße": "Ernst-Bergeest-Weg", "Nr.": "54", "PLZ": "21077", "Nummer": "54" }, "geometry": { "type": "Point", "coordinates": [ 9.96443613404406, 53.43853895 ] } },
{ "type": "Feature", "properties": { "A": "1", "Name": "KiTa Ernst-Bergeest-Weg", "Straße": "Ernst-Bergeest-Weg", "Nr.": "46", "PLZ": "21077", "Nummer": "46" }, "geometry": { "type": "Point", "coordinates": [ 9.9623219, 53.4390397 ] } },
{ "type": "Feature", "properties": { "A": "1", "Name": "Ev. KiGa Lütten-Haus", "Straße": "Schloßstraße", "Nr.": "78", "PLZ": "22041", "Nummer": "78" }, "geometry": { "type": "Point", "coordinates": [ 10.0724467, 53.5719924 ] } },
{ "type": "Feature", "properties": { "A": "1", "Name": "KiTa Knirps & Co", "Straße": "Schöneberger Straße", "Nr.": "117", "PLZ": "22149", "Nummer": "117" }, "geometry": { "type": "Point", "coordinates": [ 10.1572699038071, 53.5890388 ] } },
{ "type": "Feature", "properties": { "A": "1", "Name": "Villa Kinderbunt", "Straße": "Fabriciusstraße", "Nr.": "121", "PLZ": "22177", "Nummer": "121" }, "geometry": { "type": "Point", "coordinates": [ 10.0644951, 53.6038686 ] } },
{ "type": "Feature", "properties": { "A": "2", "Name": "Marie-Beschütz-Schule", "Straße": "Schottmüllerstraße", "Nr.": "23", "PLZ": "20251", "Nummer": "23" }, "geometry": { "type": "Point", "coordinates": [ 9.984882871701609, 53.59188245 ] } },
{ "type": "Feature", "properties": { "A": "1", "Name": "Ev. KiTa Thomaskirche", "Straße": "Fabriciusstraße", "Nr.": "52", "PLZ": "22177", "Nummer": "52" }, "geometry": { "type": "Point", "coordinates": [ 10.0611784, 53.5977129 ] } },
{ "type": "Feature", "properties": { "A": "2", "Name": "ReBBZ Harburg", "Straße": "Schwarzenbergstraße", "Nr.": "72", "PLZ": "21073", "Nummer": "72" }, "geometry": { "type": "Point", "coordinates": [ 9.97487524567706, 53.4632724 ] } },
{ "type": "Feature", "properties": { "A": "1", "Name": "Ev. KiGa Apostelkirche", "Straße": "Schwenckestraße", "Nr.": "5", "PLZ": "20257", "Nummer": "5" }, "geometry": { "type": "Point", "coordinates": [ 9.9479196, 53.5757342 ] } },
{ "type": "Feature", "properties": { "A": "1", "Name": "Kath. KiGa Heilig Kreuz Hamburg-Volksdorf", "Straße": "Farmsener Landstraße", "Nr.": "181a", "PLZ": "22359", "Nummer": "181a" }, "geometry": { "type": "Point", "coordinates": [ 10.160477639937101, 53.65064585 ] } },
{ "type": "Feature", "properties": { "A": "3", "Name": "Feierabendhaus", "Straße": "Farmsener Landstraße", "Nr.": "71-75", "PLZ": "22359", "Nummer": "71-75" }, "geometry": { "type": "Point", "coordinates": [ 10.155205414972105, 53.639917991644673 ] } },
{ "type": "Feature", "properties": { "A": "2", "Name": "ReBBZ Nord", "Straße": "Sengelmannstraße", "Nr.": "50", "PLZ": "22297", "Nummer": "50" }, "geometry": { "type": "Point", "coordinates": [ 10.020526719584, 53.61516895 ] } },
{ "type": "Feature", "properties": { "A": "1", "Name": "KiGa Hort 1816 e.V.", "Straße": "Sievekingdamm", "Nr.": "7", "PLZ": "20535", "Nummer": "7" }, "geometry": { "type": "Point", "coordinates": [ 10.0424836, 53.5556937 ] } },
{ "type": "Feature", "properties": { "A": "1", "Name": "KiTa Am Sievekingsplatz", "Straße": "Sievekingplatz", "Nr.": "1", "PLZ": "20355", "Nummer": "1" }, "geometry": { "type": "Point", "coordinates": [ 9.9751823, 53.5551979 ] } },
{ "type": "Feature", "properties": { "A": "1", "Name": "KiTa Hammer Strolche der Ev.-freik. Gemeinde\nHamm", "Straße": "Sievekingsallee", "Nr.": "77", "PLZ": "20535", "Nummer": "77" }, "geometry": { "type": "Point", "coordinates": [ 10.059195030167199, 53.56096135 ] } },
{ "type": "Feature", "properties": { "A": "1", "Name": "KiTa Kleine Wissenschaftler", "Straße": "Sievekingsallee", "Nr.": "186", "PLZ": "22111", "Nummer": "186" }, "geometry": { "type": "Point", "coordinates": [ 10.0785219, 53.5565249 ] } },
{ "type": "Feature", "properties": { "A": "1", "Name": "DRK Kindertagesstätte Elbhalle", "Straße": "Finkenwerder Norderdeich", "Nr.": "14", "PLZ": "21129", "Nummer": "14" }, "geometry": { "type": "Point", "coordinates": [ 9.865744, 53.5337129 ] } },
{ "type": "Feature", "properties": { "A": "1", "Name": "Ev. KiTa Simeonkirche Hamm", "Straße": "Sievekingsallee", "Nr.": "12a", "PLZ": "20535", "Nummer": "12a" }, "geometry": { "type": "Point", "coordinates": [ 10.0431469, 53.5605152 ] } },
{ "type": "Feature", "properties": { "A": "1", "Name": "KiTa Zapperlott", "Straße": "Simon-von-Utrecht-Straße", "Nr.": "83", "PLZ": "20359", "Nummer": "83" }, "geometry": { "type": "Point", "coordinates": [ 9.9634766, 53.55100825 ] } },
{ "type": "Feature", "properties": { "A": "1", "Name": "Kath. KiTa St. Joseph", "Straße": "Simon-von-Utrecht-Straße", "Nr.": "113", "PLZ": "22767", "Nummer": "113" }, "geometry": { "type": "Point", "coordinates": [ 9.95670487409468, 53.5513442 ] } },
{ "type": "Feature", "properties": { "A": "1", "Name": "KiTa Kinderland Hamburg", "Straße": "Simon-von-Utrecht-Straße", "Nr.": "4c", "PLZ": "20359", "Nummer": "4c" }, "geometry": { "type": "Point", "coordinates": [ 9.96188923022749, 53.5519644 ] } },
{ "type": "Feature", "properties": { "A": "1", "Name": "KiTa Spitzbergenweg", "Straße": "Spitzbergenweg", "Nr.": "40", "PLZ": "22145", "Nummer": "40" }, "geometry": { "type": "Point", "coordinates": [ 10.1669291969535, 53.6287561 ] } },
{ "type": "Feature", "properties": { "A": "1", "Name": "KiTa Lelka Birnbaum", "Straße": "St. Pauli Hafenstraße", "Nr.": "100", "PLZ": "20359", "Nummer": "100" }, "geometry": { "type": "Point", "coordinates": [ 9.9624383, 53.5465999 ] } },
{ "type": "Feature", "properties": { "A": "4", "Name": "HELIOS Mariahilf Klinik Hamburg", "Straße": "Stader Straße", "Nr.": "203c", "PLZ": "21075", "Nummer": "203c" }, "geometry": { "type": "Point", "coordinates": [ 9.937701605605289, 53.4696716 ] } },
{ "type": "Feature", "properties": { "A": "1", "Name": "KiTa Wunderland", "Straße": "Francoper Straße", "Nr.": "55a", "PLZ": "21147", "Nummer": "55a" }, "geometry": { "type": "Point", "coordinates": [ 9.862328898382099, 53.47954575 ] } },
{ "type": "Feature", "properties": { "A": "1", "Name": "KiTa Stadtbahnstraße", "Straße": "Stadtbahnstraße", "Nr.": "8", "PLZ": "22393", "Nummer": "8" }, "geometry": { "type": "Point", "coordinates": [ 10.1091527821625, 53.65427785 ] } },
{ "type": "Feature", "properties": { "A": "1", "Name": "Die Gnubbels", "Straße": "Stapelfelder Straße", "Nr.": "28c", "PLZ": "22143", "Nummer": "28c" }, "geometry": { "type": "Point", "coordinates": [ 10.1908368, 53.6041852 ] } },
{ "type": "Feature", "properties": { "A": "1", "Name": "Kinderhaus Kunterbunt", "Straße": "Friedensallee", "Nr.": "9", "PLZ": "22765", "Nummer": "9" }, "geometry": { "type": "Point", "coordinates": [ 9.9270068, 53.5547322 ] } },
{ "type": "Feature", "properties": { "A": "1", "Name": "KiTa Die Villa", "Straße": "Friedensallee", "Nr.": "118", "PLZ": "22763", "Nummer": "118" }, "geometry": { "type": "Point", "coordinates": [ 9.91705351375448, 53.5582591 ] } },
{ "type": "Feature", "properties": { "A": "1", "Name": "Lorenzini Kunst-Kita Friedensallee", "Straße": "Friedensallee", "Nr.": "260", "PLZ": "22763", "Nummer": "260" }, "geometry": { "type": "Point", "coordinates": [ 9.913645373333329, 53.5586505 ] } },
{ "type": "Feature", "properties": { "A": "1", "Name": "Spielstube", "Straße": "Steilshooper Allee", "Nr.": "501", "PLZ": "22179", "Nummer": "501" }, "geometry": { "type": "Point", "coordinates": [ 10.0619206, 53.6087647 ] } },
{ "type": "Feature", "properties": { "A": "1", "Name": "Freie Kindergärten Elbvororte e.V.", "Straße": "Friedensallee", "Nr.": "271", "PLZ": "22763", "Nummer": "271" }, "geometry": { "type": "Point", "coordinates": [ 9.91071328092602, 53.55893035 ] } },
{ "type": "Feature", "properties": { "A": "1", "Name": "KiGa Die kleinen Strolche", "Straße": "Steilshooper Straße", "Nr.": "242a", "PLZ": "22307", "Nummer": "242a" }, "geometry": { "type": "Point", "coordinates": [ 10.051038314438738, 53.60073112203046 ] } },
{ "type": "Feature", "properties": { "A": "1", "Name": "Deutsch-Spanischer Kindergarten \"La Cometa\"\"\"", "Straße": "Friedrich-Ebert-Straße", "Nr.": "14", "PLZ": "22459", "Nummer": "14" }, "geometry": { "type": "Point", "coordinates": [ 9.9466206, 53.6197381 ] } },
{ "type": "Feature", "properties": { "A": "3", "Name": "Tagespflege Barmbek", "Straße": "Steilshooper Straße", "Nr.": "242", "PLZ": "22307", "Nummer": "242" }, "geometry": { "type": "Point", "coordinates": [ 10.051136686263042, 53.600586816293571 ] } },
{ "type": "Feature", "properties": { "A": "1", "Name": "KiTa Frieberg", "Straße": "Friedrichsberger Straße", "Nr.": "18", "PLZ": "22081", "Nummer": "18" }, "geometry": { "type": "Point", "coordinates": [ 10.0494777033649, 53.57554435 ] } },
{ "type": "Feature", "properties": { "A": "1", "Name": "KiTa Käptn Kaninchen", "Straße": "Frohmestraße", "Nr.": "5", "PLZ": "22457", "Nummer": "5" }, "geometry": { "type": "Point", "coordinates": [ 9.918293127515136, 53.636022032328384 ] } },
{ "type": "Feature", "properties": { "A": "1", "Name": "KiTa Käptn Kaninchen", "Straße": "Frohmestraße", "Nr.": "67", "PLZ": "22459", "Nummer": "67" }, "geometry": { "type": "Point", "coordinates": [ 9.924241009911499, 53.6315646 ] } },
{ "type": "Feature", "properties": { "A": "1", "Name": "KiTa Kinderhaus Wundertüte", "Straße": "Frohmestraße", "Nr.": "63a", "PLZ": "22459", "Nummer": "63a" }, "geometry": { "type": "Point", "coordinates": [ 9.92400985352711, 53.6318404 ] } },
{ "type": "Feature", "properties": { "A": "1", "Name": "KiTa Früchtchen", "Straße": "Fruchtallee", "Nr.": "121", "PLZ": "20259", "Nummer": "121" }, "geometry": { "type": "Point", "coordinates": [ 9.9505516, 53.5722357 ] } },
{ "type": "Feature", "properties": { "A": "1", "Name": "KiTa MiniMeter2", "Straße": "Fruchtallee", "Nr.": "124", "PLZ": "20259", "Nummer": "124" }, "geometry": { "type": "Point", "coordinates": [ 9.9506211, 53.5728127 ] } },
{ "type": "Feature", "properties": { "A": "3", "Name": "Haus am Wehbers Park,  Senioren- und\nTherapiezentrum", "Straße": "Fruchtallee", "Nr.": "82-84", "PLZ": "20259", "Nummer": "82-84" }, "geometry": { "type": "Point", "coordinates": [ 9.9497478, 53.573027 ] } },
{ "type": "Feature", "properties": { "A": "1", "Name": "KiTa Kindervilla Fruchtallee", "Straße": "Fruchtallee", "Nr.": "22", "PLZ": "20259", "Nummer": "22" }, "geometry": { "type": "Point", "coordinates": [ 9.9497478, 53.573027 ] } },
{ "type": "Feature", "properties": { "A": "1", "Name": "KiTa Fuhlsbüttlerstraße", "Straße": "Fuhlsbüttler Straße", "Nr.": "312", "PLZ": "22307", "Nummer": "312" }, "geometry": { "type": "Point", "coordinates": [ 10.0418393, 53.5996488 ] } },
{ "type": "Feature", "properties": { "A": "1", "Name": "KiTa Fuhlinge", "Straße": "Fuhlsbüttler Straße", "Nr.": "405", "PLZ": "22309", "Nummer": "405" }, "geometry": { "type": "Point", "coordinates": [ 10.0399527, 53.6033804 ] } },
{ "type": "Feature", "properties": { "A": "1", "Name": "KiTa Kunst-Kita Der kleine Prinz", "Straße": "Fuhlsbüttler Straße", "Nr.": "488", "PLZ": "22309", "Nummer": "488" }, "geometry": { "type": "Point", "coordinates": [ 10.0395023761684, 53.60778655 ] } },
{ "type": "Feature", "properties": { "A": "1", "Name": "KiTa HeimatHafen", "Straße": "Fuhlsbüttler Straße", "Nr.": "743", "PLZ": "22337", "Nummer": "743" }, "geometry": { "type": "Point", "coordinates": [ 10.0335090928266, 53.61951575 ] } },
{ "type": "Feature", "properties": { "A": "1", "Name": "Zwergenstübchen", "Straße": "Stresemannallee", "Nr.": "134", "PLZ": "22529", "Nummer": "134" }, "geometry": { "type": "Point", "coordinates": [ 9.955905114518551, 53.5815211 ] } },
{ "type": "Feature", "properties": { "A": "1", "Name": "Ev. KiTa Ohlsdorf", "Straße": "Fuhlsbüttler Straße", "Nr.": "656a", "PLZ": "22337", "Nummer": "656a" }, "geometry": { "type": "Point", "coordinates": [ 10.0361950328186, 53.6145484 ] } },
{ "type": "Feature", "properties": { "A": "1", "Name": "KiTa Troplo-Kids, Kindertagesstätte der\nBeiersdorf AG", "Straße": "Stresemannallee", "Nr.": "103", "PLZ": "22529", "Nummer": "103" }, "geometry": { "type": "Point", "coordinates": [ 9.9598645, 53.5914021 ] } },
{ "type": "Feature", "properties": { "A": "1", "Name": "KiGa Kinderstube Sethweg", "Straße": "Garstedter Weg", "Nr.": "187", "PLZ": "22455", "Nummer": "187" }, "geometry": { "type": "Point", "coordinates": [ 9.96636205, 53.6350458 ] } },
{ "type": "Feature", "properties": { "A": "3", "Name": "Pflegewohnstift Garstedter Weg", "Straße": "Garstedter Weg", "Nr.": "79", "PLZ": "22453", "Nummer": "79" }, "geometry": { "type": "Point", "coordinates": [ 9.96116442179923, 53.62801775 ] } },
{ "type": "Feature", "properties": { "A": "3", "Name": "Seniorenzentrum St. Markus -\nSeniorenwohnungen Eimsbüttel", "Straße": "Gärtnerstraße", "Nr.": "64\/72", "PLZ": "20253", "Nummer": "64\/72" }, "geometry": { "type": "Point", "coordinates": [ 9.966163271394304, 53.582220330012788 ] } },
{ "type": "Feature", "properties": { "A": "3", "Name": "Tagespflege St. Markus", "Straße": "Gärtnerstraße", "Nr.": "63", "PLZ": "20253", "Nummer": "63" }, "geometry": { "type": "Point", "coordinates": [ 9.96670028666885, 53.58176865 ] } },
{ "type": "Feature", "properties": { "A": "1", "Name": "KiTa Kids Castle", "Straße": "Süderstraße", "Nr.": "30", "PLZ": "20097", "Nummer": "30" }, "geometry": { "type": "Point", "coordinates": [ 10.0289216, 53.5446899 ] } },
{ "type": "Feature", "properties": { "A": "1", "Name": "Kuschelhöhle", "Straße": "Sülldorfer Landstraße", "Nr.": "39", "PLZ": "22589", "Nummer": "39" }, "geometry": { "type": "Point", "coordinates": [ 9.81561230375925, 53.57719975 ] } },
{ "type": "Feature", "properties": { "A": "1", "Name": "Elbracker", "Straße": "Sülldorfer Landstraße", "Nr.": "224", "PLZ": "22589", "Nummer": "224" }, "geometry": { "type": "Point", "coordinates": [ 9.792714700896269, 53.58075855 ] } },
{ "type": "Feature", "properties": { "A": "1", "Name": "KiTa Davidswagen", "Straße": "Sülldorfer Landstraße", "Nr.": "104", "PLZ": "22589", "Nummer": "104" }, "geometry": { "type": "Point", "coordinates": [ 9.808514112114331, 53.57862825 ] } },
{ "type": "Feature", "properties": { "A": "2", "Name": "Grundschule Am Heidberg", "Straße": "Tangstedter Landstraße", "Nr.": "300", "PLZ": "22417", "Nummer": "300" }, "geometry": { "type": "Point", "coordinates": [ 10.0287037739774, 53.67065135 ] } },
{ "type": "Feature", "properties": { "A": "2", "Name": "Stadtteilschule Am Heidberg", "Straße": "Tangstedter Landstraße", "Nr.": "300", "PLZ": "22417", "Nummer": "300" }, "geometry": { "type": "Point", "coordinates": [ 10.0287037739774, 53.67065135 ] } },
{ "type": "Feature", "properties": { "A": "1", "Name": "KiTa Graf-Johann-Weg", "Straße": "Graf-Johann-Weg", "Nr.": "83", "PLZ": "22459", "Nummer": "83" }, "geometry": { "type": "Point", "coordinates": [ 9.9154338855299, 53.6232932 ] } },
{ "type": "Feature", "properties": { "A": "1", "Name": "KiTa Tangstedter Landstraße", "Straße": "Tangstedter Landstraße", "Nr.": "152", "PLZ": "22417", "Nummer": "152" }, "geometry": { "type": "Point", "coordinates": [ 10.0208791856556, 53.65605495 ] } },
{ "type": "Feature", "properties": { "A": "4", "Name": "Asklepios Klinik Nord - Heidberg (Somatik)", "Straße": "Tangstedter Landstraße", "Nr.": "400", "PLZ": "22417", "Nummer": "400" }, "geometry": { "type": "Point", "coordinates": [ 10.030131465109299, 53.6741441 ] } },
{ "type": "Feature", "properties": { "A": "1", "Name": "KiTa Baumhaus", "Straße": "Tarpenbekstraße", "Nr.": "109", "PLZ": "20251", "Nummer": "109" }, "geometry": { "type": "Point", "coordinates": [ 9.98363054672099, 53.5983916 ] } },
{ "type": "Feature", "properties": { "A": "1", "Name": "Ev. KiTa St. Martinus Eppendorf", "Straße": "Tarpenbekstraße", "Nr.": "133", "PLZ": "20251", "Nummer": "133" }, "geometry": { "type": "Point", "coordinates": [ 9.98356683954518, 53.6001229 ] } },
{ "type": "Feature", "properties": { "A": "3", "Name": "Haus Birkengrund", "Straße": "Greifenberger Straße", "Nr.": "23-25", "PLZ": "22147", "Nummer": "23-25" }, "geometry": { "type": "Point", "coordinates": [ 10.146034581388209, 53.618088598508365 ] } },
{ "type": "Feature", "properties": { "A": "3", "Name": "Carl-Ninck-Haus", "Straße": "Tarpenbekstraße", "Nr.": "107", "PLZ": "20251", "Nummer": "107" }, "geometry": { "type": "Point", "coordinates": [ 9.981876494644229, 53.5982203 ] } },
{ "type": "Feature", "properties": { "A": "3", "Name": "Zinnendorf Stiftung", "Straße": "Tarpenbekstraße", "Nr.": "117", "PLZ": "20251", "Nummer": "117" }, "geometry": { "type": "Point", "coordinates": [ 9.983377902456009, 53.5988953 ] } },
{ "type": "Feature", "properties": { "A": "1", "Name": "AWO Kita Löwenzahn", "Straße": "Tegelsbarg", "Nr.": "2h", "PLZ": "22399", "Nummer": "2h" }, "geometry": { "type": "Point", "coordinates": [ 10.0675879060569, 53.654075 ] } },
{ "type": "Feature", "properties": { "A": "1", "Name": "KiTa Grindelberg", "Straße": "Grindelberg", "Nr.": "13a", "PLZ": "20144", "Nummer": "13a" }, "geometry": { "type": "Point", "coordinates": [ 9.976798, 53.5735199 ] } },
{ "type": "Feature", "properties": { "A": "1", "Name": "Kath. KiTa St. Johannis\/ Steilshoop", "Straße": "Gründgensstraße", "Nr.": "32", "PLZ": "22309", "Nummer": "32" }, "geometry": { "type": "Point", "coordinates": [ 10.0635662492388, 53.61106015 ] } },
{ "type": "Feature", "properties": { "A": "1", "Name": "KiTa Gustav-Seitz- Weg", "Straße": "Gustav-Seitz-Weg", "Nr.": "4", "PLZ": "22309", "Nummer": "4" }, "geometry": { "type": "Point", "coordinates": [ 10.062019, 53.6105569 ] } },
{ "type": "Feature", "properties": { "A": "1", "Name": "KiTa Spatzennest", "Straße": "Habermannstraße", "Nr.": "11", "PLZ": "21031", "Nummer": "11" }, "geometry": { "type": "Point", "coordinates": [ 10.210099174017101, 53.5020812 ] } },
{ "type": "Feature", "properties": { "A": "3", "Name": "Tagespflege Veringeck", "Straße": "Veringstraße", "Nr.": "60", "PLZ": "21107", "Nummer": "60" }, "geometry": { "type": "Point", "coordinates": [ 9.9871511, 53.5124507 ] } },
{ "type": "Feature", "properties": { "A": "1", "Name": "Bewegungskindergarten Sonnenblume", "Straße": "Haldesdorfer Straße", "Nr.": "108", "PLZ": "22179", "Nummer": "108" }, "geometry": { "type": "Point", "coordinates": [ 10.07993931851547, 53.600958472458331 ] } },
{ "type": "Feature", "properties": { "A": "1", "Name": "KiTa \"Cocori\"\" spanisch-deutsche Kindertagesstätte\"", "Straße": "Hallerstraße", "Nr.": "30", "PLZ": "20146", "Nummer": "30" }, "geometry": { "type": "Point", "coordinates": [ 9.98118682397517, 53.5720564 ] } },
{ "type": "Feature", "properties": { "A": "1", "Name": "KiTa Hallerstraße", "Straße": "Hallerstraße", "Nr.": "58", "PLZ": "20146", "Nummer": "58" }, "geometry": { "type": "Point", "coordinates": [ 9.9843267, 53.5723143 ] } },
{ "type": "Feature", "properties": { "A": "1", "Name": "KiTa Enfantine KinderKlub", "Straße": "Hallerstraße", "Nr.": "76", "PLZ": "20146", "Nummer": "76" }, "geometry": { "type": "Point", "coordinates": [ 9.9869214, 53.572391 ] } },
{ "type": "Feature", "properties": { "A": "1", "Name": "KiGa Sterntaler", "Straße": "Hallerstraße", "Nr.": "89", "PLZ": "20149", "Nummer": "89" }, "geometry": { "type": "Point", "coordinates": [ 9.991227799586021, 53.57330035 ] } },
{ "type": "Feature", "properties": { "A": "1", "Name": "KiTa Käptn Kaninchen", "Straße": "Vogt-Wells-Straße", "Nr.": "15b", "PLZ": "22529", "Nummer": "15b" }, "geometry": { "type": "Point", "coordinates": [ 9.960764390842025, 53.599296501968148 ] } },
{ "type": "Feature", "properties": { "A": "1", "Name": "FRÖBEL-Kindergarten in der Hamburger Meile", "Straße": "Hamburger Straße", "Nr.": "19", "PLZ": "22083", "Nummer": "19" }, "geometry": { "type": "Point", "coordinates": [ 10.0289306, 53.5718421 ] } },
{ "type": "Feature", "properties": { "A": "3", "Name": "Victoria Tagespflege LOIS GmbH", "Straße": "Hamburger Straße", "Nr.": "178", "PLZ": "22083", "Nummer": "178" }, "geometry": { "type": "Point", "coordinates": [ 10.2147836, 53.5135973 ] } },
{ "type": "Feature", "properties": { "A": "1", "Name": "KiTa Wunderkabinett", "Straße": "Hammer Landstraße", "Nr.": "84", "PLZ": "20537", "Nummer": "84" }, "geometry": { "type": "Point", "coordinates": [ 10.052184, 53.555108 ] } },
{ "type": "Feature", "properties": { "A": "3", "Name": "Haus Hammer Landstraße", "Straße": "Hammer Landstraße", "Nr.": "168", "PLZ": "20537", "Nummer": "168" }, "geometry": { "type": "Point", "coordinates": [ 10.0588722896363, 53.55401505 ] } },
{ "type": "Feature", "properties": { "A": "1", "Name": "KiTa \"Luisito\"\"\"", "Straße": "Hammer Steindamm", "Nr.": "44", "PLZ": "22089", "Nummer": "44" }, "geometry": { "type": "Point", "coordinates": [ 10.0565086, 53.5663151 ] } },
{ "type": "Feature", "properties": { "A": "1", "Name": "KiTa Saselnest", "Straße": "Volksdorfer Weg", "Nr.": "126", "PLZ": "22393", "Nummer": "126" }, "geometry": { "type": "Point", "coordinates": [ 10.1152096989636, 53.6423601 ] } },
{ "type": "Feature", "properties": { "A": "2", "Name": "Heinrich-Heine-Gymnasium", "Straße": "Harksheider Straße", "Nr.": "70", "PLZ": "22399", "Nummer": "70" }, "geometry": { "type": "Point", "coordinates": [ 10.0749896104267, 53.6650193 ] } },
{ "type": "Feature", "properties": { "A": "1", "Name": "Ev. KiGa Simon-Petrus", "Straße": "Harksheider Straße", "Nr.": "156a", "PLZ": "22399", "Nummer": "156a" }, "geometry": { "type": "Point", "coordinates": [ 10.069059911632737, 53.667037387813934 ] } },
{ "type": "Feature", "properties": { "A": "1", "Name": "KiTa Wagnerstraße", "Straße": "Wagnerstraße", "Nr.": "38", "PLZ": "22081", "Nummer": "38" }, "geometry": { "type": "Point", "coordinates": [ 10.0375628528503, 53.5731596 ] } },
{ "type": "Feature", "properties": { "A": "1", "Name": "De Lütten Hütt", "Straße": "Wandsbeker Chaussee", "Nr.": "247", "PLZ": "22089", "Nummer": "247" }, "geometry": { "type": "Point", "coordinates": [ 10.05278560155066, 53.568807510091055 ] } },
{ "type": "Feature", "properties": { "A": "1", "Name": "KiTa Wandsbeker Chaussee", "Straße": "Wandsbeker Chaussee", "Nr.": "66", "PLZ": "22089", "Nummer": "66" }, "geometry": { "type": "Point", "coordinates": [ 10.04006010893565, 53.566453200296344 ] } },
{ "type": "Feature", "properties": { "A": "1", "Name": "KiTa Paula & Max", "Straße": "Wandsbeker Chaussee", "Nr.": "105", "PLZ": "22089", "Nummer": "105" }, "geometry": { "type": "Point", "coordinates": [ 10.0439091, 53.567485 ] } },
{ "type": "Feature", "properties": { "A": "1", "Name": "FRÖBEL-Kindergarten Wandsbek Quarree", "Straße": "Wandsbeker Marktstraße", "Nr.": "103", "PLZ": "22041", "Nummer": "103" }, "geometry": { "type": "Point", "coordinates": [ 10.0679933, 53.5731761 ] } },
{ "type": "Feature", "properties": { "A": "1", "Name": "Ev. KiGa Timotheus-Gemeinde zu Horn", "Straße": "Washingtonallee", "Nr.": "65", "PLZ": "22111", "Nummer": "65" }, "geometry": { "type": "Point", "coordinates": [ 10.091860856730801, 53.54902705 ] } },
{ "type": "Feature", "properties": { "A": "1", "Name": "KiTa Kinderpropeller", "Straße": "Weg beim Jäger", "Nr.": "95", "PLZ": "22453", "Nummer": "95" }, "geometry": { "type": "Point", "coordinates": [ 9.98631937753386, 53.61630565 ] } },
{ "type": "Feature", "properties": { "A": "1", "Name": "SoFö Wichtel KG", "Straße": "Weg beim Jäger", "Nr.": "127", "PLZ": "22453", "Nummer": "127" }, "geometry": { "type": "Point", "coordinates": [ 9.9894029, 53.6176788 ] } },
{ "type": "Feature", "properties": { "A": "1", "Name": "KiGa Rund und Bunt", "Straße": "Heinrich-Plett-Straße", "Nr.": "1b", "PLZ": "22609", "Nummer": "1b" }, "geometry": { "type": "Point", "coordinates": [ 9.866540427820398, 53.569383089800851 ] } },
{ "type": "Feature", "properties": { "A": "1", "Name": "Schnucki Nucki", "Straße": "Wendemuthstraße", "Nr.": "43", "PLZ": "22041", "Nummer": "43" }, "geometry": { "type": "Point", "coordinates": [ 10.0726247118229, 53.5776714 ] } },
{ "type": "Feature", "properties": { "A": "1", "Name": "KiTa Integratives Kinderhaus Kunterbunt", "Straße": "Wentorfer Straße", "Nr.": "66", "PLZ": "21029", "Nummer": "66" }, "geometry": { "type": "Point", "coordinates": [ 10.2274327808948, 53.48764285 ] } },
{ "type": "Feature", "properties": { "A": "1", "Name": "KiTa Mäuseburg", "Straße": "Wentorfer Straße", "Nr.": "26a", "PLZ": "21029", "Nummer": "26a" }, "geometry": { "type": "Point", "coordinates": [ 10.21879605671244, 53.486888492749635 ] } },
{ "type": "Feature", "properties": { "A": "3", "Name": "Bei Philipps  -  Tagespflege", "Straße": "Wentorfer Straße", "Nr.": "70", "PLZ": "21029", "Nummer": "70" }, "geometry": { "type": "Point", "coordinates": [ 10.228281862330901, 53.4877875 ] } },
{ "type": "Feature", "properties": { "A": "3", "Name": "Altenpension Philipps", "Straße": "Wentorfer Straße", "Nr.": "70", "PLZ": "21029", "Nummer": "70" }, "geometry": { "type": "Point", "coordinates": [ 10.228281862330901, 53.4877875 ] } },
{ "type": "Feature", "properties": { "A": "1", "Name": "KiTa Rappelkiste II", "Straße": "Hermann-Balk-Straße", "Nr.": "47", "PLZ": "22147", "Nummer": "47" }, "geometry": { "type": "Point", "coordinates": [ 10.1423726, 53.6213157 ] } },
{ "type": "Feature", "properties": { "A": "1", "Name": "Pusteblume", "Straße": "Heußweg", "Nr.": "3", "PLZ": "20257", "Nummer": "3" }, "geometry": { "type": "Point", "coordinates": [ 9.9490618, 53.5739912 ] } },
{ "type": "Feature", "properties": { "A": "1", "Name": "KiTa Heußweg", "Straße": "Heußweg", "Nr.": "25", "PLZ": "20255", "Nummer": "25" }, "geometry": { "type": "Point", "coordinates": [ 9.9499665, 53.5742514 ] } },
{ "type": "Feature", "properties": { "A": "1", "Name": "Nannys for Kids", "Straße": "Hindenburgstraße", "Nr.": "58", "PLZ": "22297", "Nummer": "58" }, "geometry": { "type": "Point", "coordinates": [ 10.0132313, 53.6059777 ] } },
{ "type": "Feature", "properties": { "A": "1", "Name": "KiTa Zauberwiese", "Straße": "Winsener Straße", "Nr.": "66", "PLZ": "21077", "Nummer": "66" }, "geometry": { "type": "Point", "coordinates": [ 9.9876407, 53.4512986 ] } },
{ "type": "Feature", "properties": { "A": "1", "Name": "KiGa Sinstorfer Kinderstube", "Straße": "Winsener Straße", "Nr.": "152", "PLZ": "21077", "Nummer": "152" }, "geometry": { "type": "Point", "coordinates": [ 9.982941482154009, 53.43161795 ] } },
{ "type": "Feature", "properties": { "A": "2", "Name": "ReBBZ Winterhude", "Straße": "Winterhuder Weg", "Nr.": "11", "PLZ": "22085", "Nummer": "11" }, "geometry": { "type": "Point", "coordinates": [ 10.024497942439201, 53.572037 ] } },
{ "type": "Feature", "properties": { "A": "1", "Name": "KiTa Integrative Kindertagesstätte\nBrummkreisel", "Straße": "Winterhuder Weg", "Nr.": "11", "PLZ": "22085", "Nummer": "11" }, "geometry": { "type": "Point", "coordinates": [ 10.024497942439201, 53.572037 ] } },
{ "type": "Feature", "properties": { "A": "1", "Name": "KiGa Kinderinsel auf der Uhlenhorst", "Straße": "Hofweg", "Nr.": "79", "PLZ": "22085", "Nummer": "79" }, "geometry": { "type": "Point", "coordinates": [ 10.0150789093857, 53.57568715 ] } },
{ "type": "Feature", "properties": { "A": "3", "Name": "Evangelisch-reformierte Stiftung   Altenhof", "Straße": "Winterhuder Weg", "Nr.": "98-106", "PLZ": "22085", "Nummer": "98-106" }, "geometry": { "type": "Point", "coordinates": [ 10.02066429372214, 53.576136058785444 ] } },
{ "type": "Feature", "properties": { "A": "1", "Name": "KiTa Winterhuder Weg", "Straße": "Winterhuder Weg", "Nr.": "11", "PLZ": "22085", "Nummer": "11" }, "geometry": { "type": "Point", "coordinates": [ 10.024497942439201, 53.572037 ] } },
{ "type": "Feature", "properties": { "A": "1", "Name": "KiTa Paula und Max", "Straße": "Hoheluftchaussee", "Nr.": "115", "PLZ": "20253", "Nummer": "115" }, "geometry": { "type": "Point", "coordinates": [ 9.9703584, 53.5829783 ] } },
{ "type": "Feature", "properties": { "A": "1", "Name": "KiTa Manuelita", "Straße": "Hoheluftchaussee", "Nr.": "95a", "PLZ": "20253", "Nummer": "95a" }, "geometry": { "type": "Point", "coordinates": [ 9.970281537994136, 53.582393269582234 ] } },
{ "type": "Feature", "properties": { "A": "1", "Name": "KiTa Tabita an der Kreuzkirche", "Straße": "Hohenzollernring", "Nr.": "67", "PLZ": "22763", "Nummer": "67" }, "geometry": { "type": "Point", "coordinates": [ 9.9172966, 53.5534989 ] } },
{ "type": "Feature", "properties": { "A": "3", "Name": "Tagespflege Ottensen", "Straße": "Hohenzollernring", "Nr.": "15", "PLZ": "22763", "Nummer": "15" }, "geometry": { "type": "Point", "coordinates": [ 9.917058523732621, 53.54831555 ] } },
{ "type": "Feature", "properties": { "A": "1", "Name": "Ev. KiTa Alten Eichen", "Straße": "Wördemanns Weg", "Nr.": "19", "PLZ": "22527", "Nummer": "19" }, "geometry": { "type": "Point", "coordinates": [ 9.93105470811259, 53.59825595 ] } },
{ "type": "Feature", "properties": { "A": "3", "Name": "Tagespflege Alten Eichen Stellingen", "Straße": "Wördemanns Weg", "Nr.": "23", "PLZ": "22527", "Nummer": "23" }, "geometry": { "type": "Point", "coordinates": [ 9.92951928623167, 53.59844455 ] } },
{ "type": "Feature", "properties": { "A": "2", "Name": "Abendschule Vor dem Holstentor", "Straße": "Holstenglacis", "Nr.": "6", "PLZ": "20355", "Nummer": "6" }, "geometry": { "type": "Point", "coordinates": [ 9.97682811979899, 53.5581872 ] } },
{ "type": "Feature", "properties": { "A": "2", "Name": "Studienkolleg für ausländische Studierende", "Straße": "Holstenglacis", "Nr.": "6", "PLZ": "20355", "Nummer": "6" }, "geometry": { "type": "Point", "coordinates": [ 9.97682811979899, 53.5581872 ] } },
{ "type": "Feature", "properties": { "A": "2", "Name": "Gymnasium Marienthal", "Straße": "Holstenhofweg", "Nr.": "86", "PLZ": "22043", "Nummer": "86" }, "geometry": { "type": "Point", "coordinates": [ 10.105826560070801, 53.56629925 ] } },
{ "type": "Feature", "properties": { "A": "1", "Name": "KiTa Kinderladen Maimouna", "Straße": "Holstenstraße", "Nr.": "20", "PLZ": "22767", "Nummer": "20" }, "geometry": { "type": "Point", "coordinates": [ 9.954561476006077, 53.552864068020824 ] } },
{ "type": "Feature", "properties": { "A": "1", "Name": "KiTa Küstenkinder", "Straße": "Holstenstraße", "Nr.": "156", "PLZ": "22765", "Nummer": "156" }, "geometry": { "type": "Point", "coordinates": [ 9.948560695499209, 53.558985969002734 ] } },
{ "type": "Feature", "properties": { "A": "1", "Name": "KiTa Villa Vivendi 1", "Straße": "Holstenstraße", "Nr.": "168", "PLZ": "22765", "Nummer": "168" }, "geometry": { "type": "Point", "coordinates": [ 9.9484055236583, 53.55966 ] } },
{ "type": "Feature", "properties": { "A": "4", "Name": "Helios Endo-Klinik Hamburg", "Straße": "Holstenstraße", "Nr.": "2", "PLZ": "22767", "Nummer": "2" }, "geometry": { "type": "Point", "coordinates": [ 9.955266840006882, 53.55127721613993 ] } },
{ "type": "Feature", "properties": { "A": "1", "Name": "Windelliga", "Straße": "Holzmühlenstraße", "Nr.": "53", "PLZ": "22041", "Nummer": "53" }, "geometry": { "type": "Point", "coordinates": [ 10.0806267, 53.5816193 ] } },
{ "type": "Feature", "properties": { "A": "1", "Name": "KiTa Sunshine", "Straße": "Horner Landstraße", "Nr.": "302", "PLZ": "22111", "Nummer": "302" }, "geometry": { "type": "Point", "coordinates": [ 10.0852947, 53.5470336 ] } },
{ "type": "Feature", "properties": { "A": "1", "Name": "KiTa \"Die Hörnchen\"\"\"", "Straße": "Ahrensburger Straße", "Nr.": "162", "PLZ": "22045", "Nummer": "162" }, "geometry": { "type": "Point", "coordinates": [ 10.1092362, 53.5820385 ] } },
{ "type": "Feature", "properties": { "A": "1", "Name": "Ev. KiTa Alt-Barmbek", "Straße": "Hufnerstraße", "Nr.": "19a", "PLZ": "22083", "Nummer": "19a" }, "geometry": { "type": "Point", "coordinates": [ 10.041316658700337, 53.584213387614476 ] } },
{ "type": "Feature", "properties": { "A": "1", "Name": "Ev. KiGa St. Lukas", "Straße": "Hummelsbütteler Kirchenweg", "Nr.": "3", "PLZ": "22335", "Nummer": "3" }, "geometry": { "type": "Point", "coordinates": [ 10.019398244411711, 53.633893151882177 ] } },
{ "type": "Feature", "properties": { "A": "1", "Name": "Kinderkrippe Mikuteit", "Straße": "Hummelsbütteler Weg", "Nr.": "34", "PLZ": "22339", "Nummer": "34" }, "geometry": { "type": "Point", "coordinates": [ 10.04432245, 53.6420416 ] } },
{ "type": "Feature", "properties": { "A": "1", "Name": "KiTa Alstertal", "Straße": "Hummelsbüttler Hauptstraße", "Nr.": "57", "PLZ": "22339", "Nummer": "57" }, "geometry": { "type": "Point", "coordinates": [ 10.0374743893748, 53.6416666 ] } },
{ "type": "Feature", "properties": { "A": "1", "Name": "KiTa Aktive Erdmännchen", "Straße": "Alsenstraße", "Nr.": "3a", "PLZ": "22769", "Nummer": "3a" }, "geometry": { "type": "Point", "coordinates": [ 9.948815860576291, 53.562969791897501 ] } },
{ "type": "Feature", "properties": { "A": "2", "Name": "Schule Alsterdorfer Straße", "Straße": "Alsterdorfer Straße", "Nr.": "39", "PLZ": "22299", "Nummer": "39" }, "geometry": { "type": "Point", "coordinates": [ 9.996299931758671, 53.5961486 ] } },
{ "type": "Feature", "properties": { "A": "1", "Name": "KiGa Petra Mikuteit", "Straße": "Hummelsbüttler Hauptstraße", "Nr.": "72a", "PLZ": "22339", "Nummer": "72a" }, "geometry": { "type": "Point", "coordinates": [ 10.0387780245957, 53.6419773 ] } },
{ "type": "Feature", "properties": { "A": "2", "Name": "Kurt-Juster-Schule", "Straße": "Alsterdorfer Straße", "Nr.": "420", "PLZ": "22297", "Nummer": "420" }, "geometry": { "type": "Point", "coordinates": [ 10.021339543066, 53.61372775 ] } },
{ "type": "Feature", "properties": { "A": "1", "Name": "KiTa Deutsch-Spanischer Kindergarten", "Straße": "Alsterdorfer Straße", "Nr.": "562", "PLZ": "22337", "Nummer": "562" }, "geometry": { "type": "Point", "coordinates": [ 10.0322772, 53.6194767 ] } },
{ "type": "Feature", "properties": { "A": "3", "Name": "Pflegewohnstift Alsterkrugchaussee", "Straße": "Alsterkrugchaussee", "Nr.": "614", "PLZ": "22335", "Nummer": "614" }, "geometry": { "type": "Point", "coordinates": [ 10.0161039551913, 53.6337339 ] } },
{ "type": "Feature", "properties": { "A": "3", "Name": "Hermann und Lilly Schilling-Stiftung", "Straße": "Isfeldstraße", "Nr.": "16", "PLZ": "22589", "Nummer": "16" }, "geometry": { "type": "Point", "coordinates": [ 9.828894046430181, 53.56735625 ] } },
{ "type": "Feature", "properties": { "A": "3", "Name": "Rosenhof Hamburg", "Straße": "Isfeldstraße", "Nr.": "30", "PLZ": "22589", "Nummer": "30" }, "geometry": { "type": "Point", "coordinates": [ 9.831253, 53.5694995 ] } },
{ "type": "Feature", "properties": { "A": "1", "Name": "KiTa Hölderlinsallee", "Straße": "Jarrestraße", "Nr.": "10", "PLZ": "22303", "Nummer": "10" }, "geometry": { "type": "Point", "coordinates": [ 10.0218331, 53.5839414 ] } },
{ "type": "Feature", "properties": { "A": "1", "Name": "KiTa Jarrestraße", "Straße": "Jarrestraße", "Nr.": "59", "PLZ": "22303", "Nummer": "59" }, "geometry": { "type": "Point", "coordinates": [ 10.0274809, 53.5859014 ] } },
{ "type": "Feature", "properties": { "A": "4", "Name": "Verhaltenstherapie Falkenried", "Straße": "Jarrestraße", "Nr.": "6", "PLZ": "22303", "Nummer": "6" }, "geometry": { "type": "Point", "coordinates": [ 10.0206935, 53.5838472 ] } },
{ "type": "Feature", "properties": { "A": "2", "Name": "Rudolf-Steiner-Schule Bergedorf", "Straße": "Am Brink", "Nr.": "7", "PLZ": "21029", "Nummer": "7" }, "geometry": { "type": "Point", "coordinates": [ 10.2170512745538, 53.484929 ] } },
{ "type": "Feature", "properties": { "A": "3", "Name": "Das Epiphanienhaus", "Straße": "Jarrestraße", "Nr.": "75", "PLZ": "22303", "Nummer": "75" }, "geometry": { "type": "Point", "coordinates": [ 10.0290728, 53.5861772 ] } },
{ "type": "Feature", "properties": { "A": "1", "Name": "Hort der Rudolf-Steiner-Schule Bergedorf", "Straße": "Am Brink", "Nr.": "7", "PLZ": "21029", "Nummer": "7" }, "geometry": { "type": "Point", "coordinates": [ 10.2170512745538, 53.484929 ] } },
{ "type": "Feature", "properties": { "A": "2", "Name": "Otto-Hahn-Schule", "Straße": "Jenfelder Allee", "Nr.": "53", "PLZ": "22043", "Nummer": "53" }, "geometry": { "type": "Point", "coordinates": [ 10.1260728470593, 53.57914175 ] } },
{ "type": "Feature", "properties": { "A": "1", "Name": "KiTa Jenfelder Allee", "Straße": "Jenfelder Allee", "Nr.": "49", "PLZ": "22043", "Nummer": "49" }, "geometry": { "type": "Point", "coordinates": [ 10.127161875817199, 53.57759625 ] } },
{ "type": "Feature", "properties": { "A": "1", "Name": "KiTa Weltentdecker", "Straße": "Jenfelder Straße", "Nr.": "236", "PLZ": "22045", "Nummer": "236" }, "geometry": { "type": "Point", "coordinates": [ 10.129851642971664, 53.57535731299091 ] } },
{ "type": "Feature", "properties": { "A": "1", "Name": "KiTa Internationaler Kinderladen", "Straße": "Jessenstraße", "Nr.": "10", "PLZ": "22767", "Nummer": "10" }, "geometry": { "type": "Point", "coordinates": [ 9.9440646, 53.550912 ] } },
{ "type": "Feature", "properties": { "A": "3", "Name": "Seniorenwohnanlage Lokstedt", "Straße": "Julius-Vosseler-Straße", "Nr.": "10", "PLZ": "22527", "Nummer": "10" }, "geometry": { "type": "Point", "coordinates": [ 9.9507838, 53.5832628 ] } },
{ "type": "Feature", "properties": { "A": "3", "Name": "ASH Haus Vitalis", "Straße": "Julius-Vosseler-Straße", "Nr.": "40", "PLZ": "22527", "Nummer": "40" }, "geometry": { "type": "Point", "coordinates": [ 9.94625630300621, 53.5943154 ] } },
{ "type": "Feature", "properties": { "A": "1", "Name": "KiTa Murmel", "Straße": "Jungiusstraße", "Nr.": "3", "PLZ": "20355", "Nummer": "3" }, "geometry": { "type": "Point", "coordinates": [ 9.9836964, 53.5577353 ] } },
{ "type": "Feature", "properties": { "A": "1", "Name": "Kindertagesstätte an der Bucerius Law School", "Straße": "Jungiusstraße", "Nr.": "6", "PLZ": "20355", "Nummer": "6" }, "geometry": { "type": "Point", "coordinates": [ 9.983476764979811, 53.5593362 ] } },
{ "type": "Feature", "properties": { "A": "3", "Name": "Georg-Behrmann-Stiftung", "Straße": "Justus-Brinckmann-Straße", "Nr.": "60", "PLZ": "21029", "Nummer": "60" }, "geometry": { "type": "Point", "coordinates": [ 10.235991974340701, 53.4847599 ] } },
{ "type": "Feature", "properties": { "A": "4", "Name": "Asklepios Klinik Nord - Wandsbek (Psychiatrie)", "Straße": "Jüthornstraße", "Nr.": "71", "PLZ": "22043", "Nummer": "71" }, "geometry": { "type": "Point", "coordinates": [ 10.0887283, 53.5688272 ] } },
{ "type": "Feature", "properties": { "A": "1", "Name": "KiTa Karolinenstraße", "Straße": "Karolinenstraße", "Nr.": "35", "PLZ": "20357", "Nummer": "35" }, "geometry": { "type": "Point", "coordinates": [ 9.9758981, 53.5622028 ] } },
{ "type": "Feature", "properties": { "A": "1", "Name": "Krippe & Kita Bunte Erdmännchen", "Straße": "Kieler Straße", "Nr.": "366", "PLZ": "22525", "Nummer": "366" }, "geometry": { "type": "Point", "coordinates": [ 9.93227099920003, 53.58939505 ] } },
{ "type": "Feature", "properties": { "A": "1", "Name": "KiTa Kindervilla Sola Bona", "Straße": "Kieler Straße", "Nr.": "602", "PLZ": "22525", "Nummer": "602" }, "geometry": { "type": "Point", "coordinates": [ 9.914301754729751, 53.60189605 ] } },
{ "type": "Feature", "properties": { "A": "1", "Name": "Ev. KiTa Rahlstedt-Ost", "Straße": "Kielkoppelstraße", "Nr.": "51", "PLZ": "22149", "Nummer": "51" }, "geometry": { "type": "Point", "coordinates": [ 10.179911804409899, 53.589326 ] } },
{ "type": "Feature", "properties": { "A": "1", "Name": "KiTa Ton und Klang", "Straße": "Kielkoppelstraße", "Nr.": "9b", "PLZ": "22149", "Nummer": "9b" }, "geometry": { "type": "Point", "coordinates": [ 10.166103886755399, 53.5909015 ] } },
{ "type": "Feature", "properties": { "A": "1", "Name": "KiGa Grashüpfer", "Straße": "Kirchwerder Landweg", "Nr.": "248", "PLZ": "21037", "Nummer": "248" }, "geometry": { "type": "Point", "coordinates": [ 10.1734470614362, 53.44425315 ] } },
{ "type": "Feature", "properties": { "A": "1", "Name": "caballito Blanco", "Straße": "Kleiner Schäferkamp", "Nr.": "50", "PLZ": "20357", "Nummer": "50" }, "geometry": { "type": "Point", "coordinates": [ 9.966801251427871, 53.5661821 ] } },
{ "type": "Feature", "properties": { "A": "3", "Name": "Elisabeth Alten- und Pflegeheim der Freimaurer\nvon 1795 e.V.", "Straße": "Kleiner Schäferkamp", "Nr.": "43", "PLZ": "20357", "Nummer": "43" }, "geometry": { "type": "Point", "coordinates": [ 9.96843917141611, 53.566749328842931 ] } },
{ "type": "Feature", "properties": { "A": "1", "Name": "KiTa Kleine Entdecker", "Straße": "Kollaustraße", "Nr.": "6", "PLZ": "22529", "Nummer": "6" }, "geometry": { "type": "Point", "coordinates": [ 9.9639848, 53.6006242 ] } },
{ "type": "Feature", "properties": { "A": "1", "Name": "KiTa Mucklas", "Straße": "Kollaustraße", "Nr.": "67", "PLZ": "22529", "Nummer": "67" }, "geometry": { "type": "Point", "coordinates": [ 9.961085588050659, 53.60449565 ] } },
{ "type": "Feature", "properties": { "A": "1", "Name": "Ev. Regenbogen-Kindergarten Niendorf-Markt", "Straße": "Kollaustraße", "Nr.": "241", "PLZ": "22453", "Nummer": "241" }, "geometry": { "type": "Point", "coordinates": [ 9.9504179, 53.6169873 ] } },
{ "type": "Feature", "properties": { "A": "1", "Name": "KiTa Kleine Hexe", "Straße": "Königstraße", "Nr.": "11a", "PLZ": "22767", "Nummer": "11a" }, "geometry": { "type": "Point", "coordinates": [ 9.9519612, 53.5491123 ] } },
{ "type": "Feature", "properties": { "A": "3", "Name": "Tagespflege Dulsberg im Haus am Kanal", "Straße": "Krausestraße", "Nr.": "23", "PLZ": "22049", "Nummer": "23" }, "geometry": { "type": "Point", "coordinates": [ 10.055879968907126, 53.583187750015185 ] } },
{ "type": "Feature", "properties": { "A": "2", "Name": "Schule Krohnstieg", "Straße": "Krohnstieg", "Nr.": "107", "PLZ": "22415", "Nummer": "107" }, "geometry": { "type": "Point", "coordinates": [ 10.0001812951826, 53.6472165 ] } },
{ "type": "Feature", "properties": { "A": "1", "Name": "KiTa Lokomotive", "Straße": "Langenfelder Damm", "Nr.": "12", "PLZ": "20257", "Nummer": "12" }, "geometry": { "type": "Point", "coordinates": [ 9.9408387, 53.5788677 ] } },
{ "type": "Feature", "properties": { "A": "1", "Name": "KiTa Mini Meter", "Straße": "Langenfelder Damm", "Nr.": "41", "PLZ": "20257", "Nummer": "41" }, "geometry": { "type": "Point", "coordinates": [ 9.9389157, 53.5800986 ] } },
{ "type": "Feature", "properties": { "A": "1", "Name": "KiTa Langenfelder Damm", "Straße": "Langenfelder Damm", "Nr.": "97", "PLZ": "22525", "Nummer": "97" }, "geometry": { "type": "Point", "coordinates": [ 9.9390726, 53.5802916 ] } },
{ "type": "Feature", "properties": { "A": "3", "Name": "ASB Tagespflege Eimsbüttel", "Straße": "Langenfelder Damm", "Nr.": "61", "PLZ": "22525", "Nummer": "61" }, "geometry": { "type": "Point", "coordinates": [ 9.93843376975371, 53.58052855 ] } },
{ "type": "Feature", "properties": { "A": "4", "Name": "Asklepios Klinik Nord - Ochsenzoll (Psychiatrie)", "Straße": "Langenhorner Chaussee", "Nr.": "560", "PLZ": "22419", "Nummer": "560" }, "geometry": { "type": "Point", "coordinates": [ 10.0074423929468, 53.674129 ] } },
{ "type": "Feature", "properties": { "A": "1", "Name": "KiTa Kita Nordlichter", "Straße": "Langenhorner Chaussee", "Nr.": "560", "PLZ": "22419", "Nummer": "560" }, "geometry": { "type": "Point", "coordinates": [ 10.0074423929468, 53.674129 ] } },
{ "type": "Feature", "properties": { "A": "1", "Name": "KiTa Langenhorner Chaussee", "Straße": "Langenhorner Chaussee", "Nr.": "321a", "PLZ": "22419", "Nummer": "321a" }, "geometry": { "type": "Point", "coordinates": [ 10.0048496, 53.6553597 ] } },
{ "type": "Feature", "properties": { "A": "3", "Name": "Wirth.Die Tagespflege", "Straße": "Langenhorner Chaussee", "Nr.": "666", "PLZ": "22419", "Nummer": "666" }, "geometry": { "type": "Point", "coordinates": [ 10.0017207, 53.6784436 ] } },
{ "type": "Feature", "properties": { "A": "2", "Name": "Gymnasium Lerchenfeld", "Straße": "Lerchenfeld", "Nr.": "10", "PLZ": "22081", "Nummer": "10" }, "geometry": { "type": "Point", "coordinates": [ 10.0300089701255, 53.5690436 ] } },
{ "type": "Feature", "properties": { "A": "4", "Name": "Bundeswehrkrankenhaus Hamburg", "Straße": "Lesserstraße", "Nr.": "180", "PLZ": "22049", "Nummer": "180" }, "geometry": { "type": "Point", "coordinates": [ 10.0782900315182, 53.5952362 ] } },
{ "type": "Feature", "properties": { "A": "1", "Name": "KiTa Stadt Oase", "Straße": "Lohkampstraße", "Nr.": "41", "PLZ": "22523", "Nummer": "41" }, "geometry": { "type": "Point", "coordinates": [ 9.898389, 53.609192 ] } },
{ "type": "Feature", "properties": { "A": "1", "Name": "KiTa Kinderladen MOMO", "Straße": "Lokstedter Weg", "Nr.": "41", "PLZ": "20251", "Nummer": "41" }, "geometry": { "type": "Point", "coordinates": [ 9.981121756277179, 53.596392 ] } },
{ "type": "Feature", "properties": { "A": "1", "Name": "KiTa Tilly", "Straße": "Lokstedter Weg", "Nr.": "92", "PLZ": "20251", "Nummer": "92" }, "geometry": { "type": "Point", "coordinates": [ 9.98194466935467, 53.59720655 ] } },
{ "type": "Feature", "properties": { "A": "1", "Name": "KiTa Ludolfstraße", "Straße": "Ludolfstraße", "Nr.": "27", "PLZ": "20249", "Nummer": "27" }, "geometry": { "type": "Point", "coordinates": [ 9.991141937236669, 53.59347175 ] } },
{ "type": "Feature", "properties": { "A": "1", "Name": "KiTa alte druckerei", "Straße": "Luruper Chaussee", "Nr.": "125", "PLZ": "22761", "Nummer": "125" }, "geometry": { "type": "Point", "coordinates": [ 9.8932397, 53.572214 ] } },
{ "type": "Feature", "properties": { "A": "2", "Name": "Grundschule Luruper Hauptstraße", "Straße": "Luruper Hauptstraße", "Nr.": "131", "PLZ": "22547", "Nummer": "131" }, "geometry": { "type": "Point", "coordinates": [ 9.87308356836248, 53.5906784 ] } },
{ "type": "Feature", "properties": { "A": "1", "Name": "KiTa Teddybär", "Straße": "Luruper Hauptstraße", "Nr.": "256", "PLZ": "22547", "Nummer": "256" }, "geometry": { "type": "Point", "coordinates": [ 9.8618561, 53.5981032 ] } },
{ "type": "Feature", "properties": { "A": "3", "Name": "Tabea - Leben bei Freunden -", "Straße": "Luruper Hauptstraße", "Nr.": "119", "PLZ": "22547", "Nummer": "119" }, "geometry": { "type": "Point", "coordinates": [ 9.8747292, 53.5893715 ] } },
{ "type": "Feature", "properties": { "A": "3", "Name": "Tagespflegestätte Tabea - Leben bei Freunden", "Straße": "Luruper Hauptstraße", "Nr.": "115", "PLZ": "22547", "Nummer": "115" }, "geometry": { "type": "Point", "coordinates": [ 9.874556646291012, 53.589615731306047 ] } },
{ "type": "Feature", "properties": { "A": "3", "Name": "Tagespflege im fama Wohnen mit Service", "Straße": "Luruper Hauptstraße", "Nr.": "247", "PLZ": "22547", "Nummer": "247" }, "geometry": { "type": "Point", "coordinates": [ 9.8617718, 53.5975707 ] } }
]
}
